{
"type": "FeatureCollection",
"name": "mawas",
"crs": { "type": "name", "properties": { "name": "urn:ogc:def:crs:EPSG::32750" } },
"features": [
{ "type": "Feature", "properties": { "OBJECTID": 1, "ID": 1.0, "AREA": 2151032239.0, "PERIMETER": 279717.09625040292, "HECTARES": 215103.22390010676, "SOURCETHM": "Blok_e.dbf" }, "geometry": { "type": "MultiPolygon", "coordinates": [ [ [ [ 258149.983099999837577, 9760255.55519999936223 ], [ 258166.391200000420213, 9760240.17259999923408 ], [ 256980.404699999839067, 9758576.206599999219179 ], [ 256392.700899999588728, 9757765.580800000578165 ], [ 255663.137699999846518, 9757309.603700000792742 ], [ 254837.312599999830127, 9756777.6305 ], [ 254008.361700000241399, 9756238.667700000107288 ], [ 253418.717299999669194, 9755916.340500000864267 ], [ 252810.747899999842048, 9755541.426000000908971 ], [ 251680.938099999912083, 9754857.4605 ], [ 250920.976300000213087, 9754381.217800000682473 ], [ 249917.826799999922514, 9753763.115599999204278 ], [ 249512.513899999670684, 9753651.654500000178814 ], [ 249401.052799999713898, 9753631.388900000602007 ], [ 249050.298899999819696, 9753534.122899999842048 ], [ 247808.243999999947846, 9753259.335699999704957 ], [ 246730.77240000013262, 9753035.401200000196695 ], [ 245150.333499999716878, 9753058.88429999910295 ], [ 243696.273299999535084, 9753063.9507 ], [ 243645.609199999831617, 9753094.349199999123812 ], [ 243371.458300000056624, 9753096.565199999138713 ], [ 243169.366499999538064, 9753084.216399999335408 ], [ 242670.424899999983609, 9753082.450400000438094 ], [ 241837.653800000436604, 9753091.860300000756979 ], [ 241226.013899999670684, 9753101.270099999383092 ], [ 240661.492700000293553, 9753099.4156 ], [ 240063.656200000084937, 9753119.68129999935627 ], [ 239131.4364, 9753129.814099999144673 ], [ 237697.641900000162423, 9753124.747700000181794 ], [ 236793.97759999986738, 9753129.499600000679493 ], [ 235792.671099999919534, 9753134.8805 ], [ 234982.045300000347197, 9753124.747700000181794 ], [ 234239.205099999904633, 9753129.499600000679493 ], [ 233679.977500000037253, 9753139.946900000795722 ], [ 232898.302299999631941, 9753138.909499999135733 ], [ 232648.941499999724329, 9753143.614399999380112 ], [ 232332.311999999918044, 9753160.212600000202656 ], [ 232048.592899999581277, 9753170.3454 ], [ 231177.170099999755621, 9753170.3454 ], [ 230574.071000000461936, 9753181.253799999132752 ], [ 229935.899299999698997, 9753185.544600000604987 ], [ 229266.102699999697506, 9753195.36849999986589 ], [ 227970.13150000013411, 9753175.411800000816584 ], [ 226480.606499999761581, 9753175.411800000816584 ], [ 224250.65610000025481, 9753167.139000000432134 ], [ 222655.465699999593198, 9753160.212600000202656 ], [ 221525.655899999663234, 9753155.146199999377131 ], [ 220481.97510000038892, 9753145.013299999758601 ], [ 219458.559899999760091, 9753114.614900000393391 ], [ 218875.922600000165403, 9753119.68129999935627 ], [ 217528.257100000046194, 9753099.4156 ], [ 216807.469800000078976, 9753099.4156 ], [ 215555.96059999987483, 9753077.745500000193715 ], [ 214169.22620000038296, 9753094.349199999123812 ], [ 213429.335900000296533, 9753105.974999999627471 ], [ 213217.614500000141561, 9753105.974999999627471 ], [ 213304.978900000452995, 9753270.546399999409914 ], [ 213410.516200000420213, 9753505.893400000408292 ], [ 213436.836400000378489, 9753548.549000000581145 ], [ 213441.846699999645352, 9753550.219100000336766 ], [ 213491.708100000396371, 9753637.476500000804663 ], [ 213504.708200000226498, 9753658.545099999755621 ], [ 213632.186499999836087, 9753945.506400000303984 ], [ 213688.106599999591708, 9754051.664300000295043 ], [ 213725.746000000275671, 9754183.402100000530481 ], [ 213730.450899999588728, 9754409.238399999216199 ], [ 213706.926300000399351, 9754536.271299999207258 ], [ 213642.31940000038594, 9754715.6009 ], [ 213495.204800000414252, 9754917.369899999350309 ], [ 213415.221199999563396, 9755006.763399999588728 ], [ 213109.401200000196695, 9755232.599700000137091 ], [ 212689.833999999798834, 9755414.765799999237061 ], [ 212162.927199999801815, 9755597.156600000336766 ], [ 211869.075299999676645, 9755698.4847999997437 ], [ 211556.777099999599159, 9755872.469000000506639 ], [ 211286.43790000025183, 9756210.192399999126792 ], [ 211033.11739999987185, 9756574.973999999463558 ], [ 210779.796799999661744, 9756868.825899999588728 ], [ 210475.81209999974817, 9757112.013699999079108 ], [ 210232.62430000025779, 9757264.005999999120831 ], [ 210131.296099999919534, 9757385.599899999797344 ], [ 209999.56940000038594, 9757557.857899999246001 ], [ 209898.241100000217557, 9757719.9831000007689 ], [ 209780.200699999928474, 9757847.253399999812245 ], [ 209729.145499999634922, 9757994.560100000351667 ], [ 209733.42850000038743, 9758037.3902000002563 ], [ 209782.334400000050664, 9758061.843100000172853 ], [ 209949.713299999944866, 9758092.275699999183416 ], [ 210284.471199999563396, 9758031.410599999129772 ], [ 210506.63300000037998, 9758041.989800000563264 ], [ 210604.012799999676645, 9758046.626900000497699 ], [ 210893.121899999678135, 9758077.059399999678135 ], [ 211151.79839999973774, 9758077.059499999508262 ], [ 211486.556300000287592, 9758031.410700000822544 ], [ 211730.016499999910593, 9758061.8432 ], [ 212019.125599999912083, 9758198.78969999961555 ], [ 212232.153300000354648, 9758411.817399999126792 ], [ 212270.513100000098348, 9758488.537100000306964 ], [ 212294.458899999968708, 9758517.666500000283122 ], [ 212451.303399999625981, 9758785.995799999684095 ], [ 212494.494699999690056, 9758862.498099999502301 ], [ 212600.115899999625981, 9759165.038799999281764 ], [ 212679.331699999980628, 9759522.225199999287724 ], [ 212691.493599999696016, 9759708.052799999713898 ], [ 212719.073800000362098, 9759735.632999999448657 ], [ 212962.534099999815226, 9759781.2818 ], [ 213266.859400000423193, 9759796.498099999502301 ], [ 213271.841699999757111, 9759795.824799999594688 ], [ 213297.291899999603629, 9759781.2818 ], [ 213434.238300000317395, 9759781.2818 ], [ 213555.968500000424683, 9759811.714400000870228 ], [ 213768.996199999935925, 9759872.579500000923872 ], [ 214012.456500000320375, 9760024.742200000211596 ], [ 214179.835400000214577, 9760207.337400000542402 ], [ 214267.39989999961108, 9760348.787799999117851 ], [ 214350.08420000039041, 9760482.354800000786781 ], [ 214386.047100000083447, 9760528.068600000813603 ], [ 214479.369300000369549, 9760727.686000000685453 ], [ 214644.57079999987036, 9761196.295 ], [ 214604.990600000135601, 9761549.878499999642372 ], [ 214568.048999999649823, 9761763.611700000241399 ], [ 214359.593100000172853, 9762040.67339999973774 ], [ 214153.775899999774992, 9762114.556500000879169 ], [ 213903.101099999621511, 9762061.782800000160933 ], [ 213725.512900000438094, 9761918.411599999293685 ], [ 213677.698499999940395, 9761896.343399999663234 ], [ 213591.888799999840558, 9761810.533700000494719 ], [ 213559.528599999845028, 9761784.408500000834465 ], [ 213358.213200000114739, 9761664.661100000143051 ], [ 213073.235500000417233, 9761574.945900000631809 ], [ 212748.677600000053644, 9761585.500700000673532 ], [ 212461.606300000101328, 9761705.0987 ], [ 212272.395399999804795, 9761866.520300000905991 ], [ 212180.041500000283122, 9762188.439600000157952 ], [ 212221.505099999718368, 9762331.967199999839067 ], [ 212293.018199999816716, 9762413.696599999442697 ], [ 212551.694799999706447, 9762626.72440000064671 ], [ 212840.80379999987781, 9762854.968399999663234 ], [ 212977.750199999660254, 9762991.914899999275804 ], [ 213114.696600000374019, 9763220.158900000154972 ], [ 213120.850899999961257, 9763235.984200000762939 ], [ 213142.605100000277162, 9763266.109899999573827 ], [ 213288.229600000195205, 9763530.67879999987781 ], [ 213327.868400000035763, 9763745.2621 ], [ 213433.52240000013262, 9763993.753200000151992 ], [ 213526.341400000266731, 9764350.850999999791384 ], [ 213603.610700000077486, 9764535.547499999403954 ], [ 213672.558299999684095, 9764737.507799999788404 ], [ 213718.393299999646842, 9764885.172900000587106 ], [ 213805.469800000078976, 9765106.822200000286102 ], [ 213825.423999999649823, 9765280.0954 ], [ 213965.110100000165403, 9765561.994899999350309 ], [ 214024.403099999763072, 9765637.261900000274181 ], [ 214086.489500000141561, 9765767.812100000679493 ], [ 214288.687800000421703, 9766047.399599999189377 ], [ 214474.278800000436604, 9766285.490800000727177 ], [ 214496.80460000038147, 9766389.221799999475479 ], [ 214613.052699999883771, 9766589.768999999389052 ], [ 214719.773299999535084, 9766725.653799999505281 ], [ 214797.686999999918044, 9766894.0164 ], [ 214838.514000000432134, 9767044.934399999678135 ], [ 214890.625500000081956, 9767185.028000000864267 ], [ 214953.296699999831617, 9767362.895600000396371 ], [ 214957.064399999566376, 9767581.908600000664592 ], [ 214995.515599999576807, 9767840.497099999338388 ], [ 214917.218399999663234, 9768058.174900000914931 ], [ 214811.672799999825656, 9768203.721599999815226 ], [ 214612.77419999986887, 9768309.599300000816584 ], [ 214522.434600000269711, 9768324.660299999639392 ], [ 214519.135700000450015, 9768326.2127 ], [ 214408.07909999974072, 9768378.474700000137091 ], [ 214179.835099999792874, 9768424.123500000685453 ], [ 214053.265700000338256, 9768460.2862 ], [ 213969.068199999630451, 9768505.445000000298023 ], [ 213832.570700000040233, 9768666.68610000051558 ], [ 213805.96169999986887, 9768838.716199999675155 ], [ 213805.593399999663234, 9769063.653899999335408 ], [ 213973.234000000171363, 9769352.905799999833107 ], [ 214070.65610000025481, 9769526.67820000089705 ], [ 214218.423600000329316, 9769712.642200000584126 ], [ 214268.75870000012219, 9769910.268400000408292 ], [ 214240.381699999794364, 9770126.138000000268221 ], [ 214166.9693, 9770273.362199999392033 ], [ 214057.322800000198185, 9770413.033600000664592 ], [ 213892.027800000272691, 9770483.818299999460578 ], [ 213860.293399999849498, 9770508.752499999478459 ], [ 213835.71860000025481, 9770516.9441 ], [ 213731.58669999986887, 9770587.365399999544024 ], [ 213644.528099999763072, 9770580.6743 ], [ 213632.049399999901652, 9770584.83390000090003 ], [ 213565.564600000157952, 9770574.605399999767542 ], [ 213527.969600000418723, 9770571.716 ], [ 213514.519199999980628, 9770566.752299999818206 ], [ 213434.237999999895692, 9770554.4013 ], [ 213297.291600000113249, 9770463.103700000792742 ], [ 213160.345200000330806, 9770265.292199999094009 ], [ 213157.910600000061095, 9770256.162399999797344 ], [ 213115.7955, 9770185.970499999821186 ], [ 213115.939399999566376, 9770180.1491 ], [ 213024.850700000301003, 9769985.826400000602007 ], [ 213006.63300000037998, 9769785.431099999696016 ], [ 212903.399100000038743, 9769639.688999999314547 ], [ 212893.870799999684095, 9769638.630300000309944 ], [ 212894.382299999706447, 9769627.4232 ], [ 212853.832100000232458, 9769634.181600000709295 ], [ 212848.745799999684095, 9769633.616399999707937 ], [ 212848.548299999907613, 9769635.06220000050962 ], [ 212719.073499999940395, 9769656.64130000025034 ], [ 212566.910799999721348, 9769808.803999999538064 ], [ 212501.713200000114739, 9769948.5131 ], [ 212479.912299999967217, 9770084.065300000831485 ], [ 212430.267, 9770320.716299999505281 ], [ 212327.499400000087917, 9770400.5625 ], [ 212308.234199999831617, 9770432.6711 ], [ 212105.921000000089407, 9770540.57149999961257 ], [ 212013.666299999691546, 9770598.236600000411272 ], [ 211714.143799999728799, 9770701.841700000688434 ], [ 211571.162800000049174, 9770778.098300000652671 ], [ 211391.514399999752641, 9770889.191400000825524 ], [ 211216.912899999879301, 9770987.480499999597669 ], [ 211129.115399999544024, 9771066.916300000622869 ], [ 211007.965400000102818, 9771206.785599999129772 ], [ 210783.406000000424683, 9771418.434699999168515 ], [ 210702.379499999806285, 9771500.349500000476837 ], [ 210676.956399999558926, 9771594.374099999666214 ], [ 210662.534099999815226, 9771708.4945 ], [ 210695.309899999760091, 9771741.270300000905991 ], [ 210786.607499999925494, 9771756.486600000411272 ], [ 210923.553899999707937, 9771695.621500000357628 ], [ 211090.932799999602139, 9771604.323899999260902 ], [ 211349.609400000423193, 9771513.0263 ], [ 211532.204599999822676, 9771513.0263 ], [ 211714.799800000153482, 9771573.8914 ], [ 211851.746199999935925, 9771695.621600000187755 ], [ 211973.476300000213087, 9771863.000499999150634 ], [ 212064.773900000378489, 9771969.514399999752641 ], [ 212182.519799999892712, 9772074.177500000223517 ], [ 212413.809799999929965, 9772148.670399999246001 ], [ 212566.910699999891222, 9772136.893400000408292 ], [ 212749.505900000222027, 9772076.028400000184774 ], [ 212783.264200000092387, 9772057.461300000548363 ], [ 213070.065299999900162, 9771900.532400000840425 ], [ 213135.220700000412762, 9771867.954700000584126 ], [ 213135.117600000463426, 9771874.052799999713898 ], [ 213205.993900000117719, 9771817.351800000295043 ], [ 213297.291500000283122, 9771802.135500000789762 ], [ 213434.237900000065565, 9771771.70299999974668 ], [ 213540.751799999736249, 9771680.405300000682473 ], [ 213601.616799999959767, 9771589.107699999585748 ], [ 213738.563299999572337, 9771528.242599999532104 ], [ 213875.509700000286102, 9771482.593800000846386 ], [ 214012.456100000068545, 9771391.29619999974966 ], [ 214149.402499999850988, 9771360.863700000569224 ], [ 214150.560200000181794, 9771360.968900000676513 ], [ 214209.538800000213087, 9771339.041600000113249 ], [ 214360.912499999627471, 9771324.877100000157952 ], [ 214460.773299999535084, 9771431.591199999675155 ], [ 214529.788099999539554, 9771554.442399999126792 ], [ 214506.040000000037253, 9771675.82179999910295 ], [ 214421.151300000026822, 9771775.620200000703335 ], [ 214247.449099999852479, 9771913.30320000089705 ], [ 214234.255699999630451, 9772039.96000000089407 ], [ 214315.179999999701977, 9772185.728499999269843 ], [ 214447.219600000418723, 9772463.531700000166893 ], [ 214377.646399999968708, 9772597.2368 ], [ 214377.646399999968708, 9772608.597899999469519 ], [ 214301.565100000239909, 9772760.760600000619888 ], [ 214277.285099999979138, 9772788.0756 ], [ 214235.918200000189245, 9772886.845499999821186 ], [ 214162.740799999795854, 9772914.801200000569224 ], [ 214073.321100000292063, 9773004.220899999141693 ], [ 214027.6722999997437, 9773125.951099999248981 ], [ 214042.888500000350177, 9773308.546299999579787 ], [ 214088.537299999967217, 9773430.276499999687076 ], [ 213997.239699999801815, 9773552.0066 ], [ 213905.942099999636412, 9773536.790400000289083 ], [ 213845.077100000344217, 9773445.49269999936223 ], [ 213890.725899999961257, 9773354.19510000012815 ], [ 213921.158400000073016, 9773262.89750000089407 ], [ 213936.374699999578297, 9773156.383600000292063 ], [ 213982.02350000012666, 9773004.220899999141693 ], [ 213951.590900000184774, 9772958.572100000455976 ], [ 213950.262900000438094, 9772958.970499999821186 ], [ 213891.810899999924004, 9772979.464600000530481 ], [ 213804.150500000454485, 9773050.575300000607967 ], [ 213600.760599999688566, 9773349.866499999538064 ], [ 213525.769500000402331, 9773492.55460000038147 ], [ 213468.653800000436604, 9773640.884800000116229 ], [ 213375.783999999985099, 9773826.157800000160933 ], [ 213227.598399999551475, 9773935.853199999779463 ], [ 213032.352300000376999, 9774024.561599999666214 ], [ 212820.793700000271201, 9774077.429700000211596 ], [ 212558.692499999888241, 9774179.93129999935627 ], [ 212447.394299999810755, 9774190.536499999463558 ], [ 212384.315399999730289, 9774206.306199999526143 ], [ 212079.990100000053644, 9774160.657400000840425 ], [ 211943.043700000271201, 9774008.494699999690056 ], [ 211790.881000000052154, 9773765.034299999475479 ], [ 211730.261400000192225, 9773583.175499999895692 ], [ 211729.503100000321865, 9773582.084000000730157 ], [ 211600.058000000193715, 9773492.4682 ], [ 211530.939299999736249, 9773489.589299999177456 ], [ 211417.46239999961108, 9773458.251700000837445 ], [ 211351.622499999590218, 9773482.1206 ], [ 211311.91509999986738, 9773569.076400000602007 ], [ 211346.217899999581277, 9773677.262399999424815 ], [ 211418.267699999734759, 9773759.956800000742078 ], [ 211483.429399999789894, 9773790.725700000301003 ], [ 211524.130900000222027, 9773945.235999999567866 ], [ 211661.841500000096858, 9774177.5121 ], [ 211735.879900000058115, 9774302.392400000244379 ], [ 211742.490100000053644, 9774312.745699999853969 ], [ 211882.178600000217557, 9774495.415300000458956 ], [ 211937.452600000426173, 9774541.477 ], [ 212039.503600000403821, 9774566.996300000697374 ], [ 212123.36849999986589, 9774635.73619999922812 ], [ 212186.503899999894202, 9774662.794299999251962 ], [ 212194.404500000178814, 9774669.378100000321865 ], [ 212330.558500000275671, 9774725.689999999478459 ], [ 212405.648900000378489, 9774842.240599999204278 ], [ 212489.675200000405312, 9775069.726299999281764 ], [ 212507.238199999555945, 9775223.530200000852346 ], [ 212501.090400000102818, 9775272.146800000220537 ], [ 212506.0455, 9775301.877699999138713 ], [ 212493.4682, 9775332.42259999923408 ], [ 212474.577899999916553, 9775481.806800000369549 ], [ 212370.026700000278652, 9775614.05519999936223 ], [ 212304.424499999731779, 9775665.032600000500679 ], [ 212151.540300000458956, 9775721.748700000345707 ], [ 212102.339200000278652, 9775753.729399999603629 ], [ 211947.399400000460446, 9775863.392300000414252 ], [ 211787.355499999597669, 9775910.4046 ], [ 211684.36710000038147, 9775956.177300000563264 ], [ 211617.176099999807775, 9775919.997500000521541 ], [ 211577.016400000080466, 9775916.351099999621511 ], [ 211522.744599999859929, 9775869.149800000712276 ], [ 211486.55559999961406, 9775849.6634 ], [ 211440.9068, 9775697.500700000673532 ], [ 211486.55559999961406, 9775545.337999999523163 ], [ 211608.285799999721348, 9775438.824100000783801 ], [ 211730.0159, 9775317.093900000676513 ], [ 211824.438799999654293, 9775209.182099999859929 ], [ 211814.37459999974817, 9775135.675000000745058 ], [ 211829.096800000406802, 9775070.486600000411272 ], [ 211801.215300000272691, 9775016.715199999511242 ], [ 211775.025200000032783, 9774997.072599999606609 ], [ 211616.741499999538064, 9774977.025399999693036 ], [ 211507.177600000053644, 9775078.402699999511242 ], [ 211457.602500000037253, 9775175.489900000393391 ], [ 211404.584499999880791, 9775400.346699999645352 ], [ 211272.559600000269711, 9775638.478000000119209 ], [ 211167.054100000299513, 9775757.572799999266863 ], [ 211067.837000000290573, 9775844.939899999648333 ], [ 211062.427500000223517, 9775847.735999999567866 ], [ 211014.851400000043213, 9775895.31220000050962 ], [ 210775.458599999547005, 9775993.885700000450015 ], [ 210752.249699999578297, 9776006.5362 ], [ 210680.093500000424683, 9776093.123700000345707 ], [ 210695.309700000099838, 9776184.421299999579787 ], [ 210817.039900000207126, 9776230.07010000012815 ], [ 210969.202499999664724, 9776199.637599999085069 ], [ 211151.797799999825656, 9776169.2051 ], [ 211207.95380000025034, 9776174.310200000181794 ], [ 211246.232400000095367, 9776167.644799999892712 ], [ 211276.847699999809265, 9776180.573200000450015 ], [ 211319.176699999719858, 9776184.421299999579787 ], [ 211412.000099999830127, 9776242.436000000685453 ], [ 211511.006099999882281, 9776299.968100000172853 ], [ 211557.956899999640882, 9776348.290300000458956 ], [ 211562.636900000274181, 9776351.800300000235438 ], [ 211567.731200000271201, 9776358.349999999627471 ], [ 211647.027700000442564, 9776439.9627 ], [ 211735.735600000247359, 9776511.656400000676513 ], [ 211834.086799999698997, 9776602.933299999684095 ], [ 211866.962299999780953, 9776625.693199999630451 ], [ 211922.99100000038743, 9776651.160800000652671 ], [ 211949.273299999535084, 9776659.7324 ], [ 212071.855600000359118, 9776701.192299999296665 ], [ 212138.688099999912083, 9776715.6875 ], [ 212262.585199999623001, 9776732.207100000232458 ], [ 212420.375199999660254, 9776758.5055 ], [ 212474.575899999588728, 9776754.622700000181794 ], [ 212570.335699999704957, 9776728.506400000303984 ], [ 212570.365399999544024, 9776727.856599999591708 ], [ 212617.987399999983609, 9776714.25029999949038 ], [ 212794.092299999669194, 9776726.395500000566244 ], [ 212821.704300000332296, 9776740.201500000432134 ], [ 212870.057000000029802, 9776742.091900000348687 ], [ 212930.346300000324845, 9776788.537000000476837 ], [ 212977.749699999578297, 9776808.288499999791384 ], [ 213001.347000000067055, 9776839.146500000730157 ], [ 213005.304800000041723, 9776840.364299999549985 ], [ 213029.0795, 9776861.761399999260902 ], [ 213111.811300000175834, 9776921.780999999493361 ], [ 213213.085699999704957, 9776990.128000000491738 ], [ 213243.946800000034273, 9777146.612800000235438 ], [ 213228.917799999937415, 9777256.6349 ], [ 213164.689299999736249, 9777318.640799999237061 ], [ 213094.34499999973923, 9777348.988800000399351 ], [ 213055.929800000041723, 9777347.542099999263883 ], [ 212970.544200000353158, 9777361.773 ], [ 212942.012799999676645, 9777350.360400000587106 ], [ 212909.471400000154972, 9777327.581399999558926 ], [ 212800.164900000207126, 9777303.29109999909997 ], [ 212710.890999999828637, 9777279.4847 ], [ 212524.389600000344217, 9777304.13120000064373 ], [ 212396.85149999987334, 9777358.36629999987781 ], [ 212211.617899999953806, 9777411.175000000745058 ], [ 212177.941499999724329, 9777411.185799999162555 ], [ 212101.529900000430644, 9777431.294099999591708 ], [ 211906.484000000171363, 9777410.763000000268221 ], [ 211829.748700000345707, 9777408.120400000363588 ], [ 211603.295099999755621, 9777408.120400000363588 ], [ 211569.714100000448525, 9777399.165400000289083 ], [ 211537.283200000412762, 9777398.048599999397993 ], [ 211462.14740000013262, 9777370.481000000610948 ], [ 211429.492200000211596, 9777361.772900000214577 ], [ 211280.252299999818206, 9777350.718100000172853 ], [ 211193.394100000150502, 9777345.0581 ], [ 211115.128299999982119, 9777338.87529999949038 ], [ 210900.943400000222027, 9777377.818 ], [ 210862.924599999561906, 9777397.977600000798702 ], [ 210800.010700000450015, 9777474.326199999079108 ], [ 210754.791500000283122, 9777567.007099999114871 ], [ 210744.598399999551475, 9777643.201899999752641 ], [ 210773.507500000298023, 9777746.571000000461936 ], [ 210780.628200000151992, 9777755.726199999451637 ], [ 210908.083599999547005, 9777802.073599999770522 ], [ 211000.778500000014901, 9777755.726199999451637 ], [ 211162.994500000029802, 9777651.444399999454618 ], [ 211359.970999999903142, 9777547.162699999287724 ], [ 211580.121299999766052, 9777512.402100000530481 ], [ 211742.337299999780953, 9777523.989 ], [ 211786.159799999557436, 9777554.116900000721216 ], [ 211814.757399999536574, 9777556.716099999845028 ], [ 212066.731200000271201, 9777728.716700000688434 ], [ 212317.855800000019372, 9777900.74129999987781 ], [ 212418.842299999669194, 9778093.097200000658631 ], [ 212443.214999999850988, 9778115.354299999773502 ], [ 212459.741899999789894, 9778453.277300000190735 ], [ 212428.0777000002563, 9778574.656700000166893 ], [ 212315.822599999606609, 9778650.346100000664592 ], [ 212283.421400000341237, 9778656.331499999389052 ], [ 212263.745900000445545, 9778671.088199999183416 ], [ 212124.703599999658763, 9778694.261900000274181 ], [ 212024.135300000198185, 9778704.847999999299645 ], [ 211895.063900000415742, 9778743.532400000840425 ], [ 211786.396099999547005, 9778840.817500000819564 ], [ 211752.575000000186265, 9778978.375099999830127 ], [ 211733.237399999983609, 9779158.294800000265241 ], [ 211690.4852, 9779339.787000000476837 ], [ 211640.43099999986589, 9779481.044099999591708 ], [ 211648.504099999554455, 9779571.059499999508262 ], [ 211692.601700000464916, 9779597.752499999478459 ], [ 211730.75040000025183, 9779574.863299999386072 ], [ 211777.097799999639392, 9779516.928999999538064 ], [ 211858.205900000408292, 9779331.539200000464916 ], [ 211962.487599999643862, 9779204.083699999377131 ], [ 212030.274600000120699, 9779175.839099999517202 ], [ 212030.956000000238419, 9779174.956900000572205 ], [ 212033.930399999953806, 9779174.315899999812245 ], [ 212101.529900000430644, 9779146.14949999935925 ], [ 212148.02419999986887, 9779149.7259 ], [ 212157.065600000321865, 9779147.777300000190735 ], [ 212180.656600000336766, 9779152.236099999397993 ], [ 212252.158999999985099, 9779157.736300000920892 ], [ 212265.275600000284612, 9779168.229599999263883 ], [ 212286.908200000412762, 9779172.318299999460578 ], [ 212453.228699999861419, 9779306.482200000435114 ], [ 212503.280100000090897, 9779391.3289 ], [ 212526.837000000290573, 9779486.389000000432134 ], [ 212591.186099999584258, 9779613.389699999243021 ], [ 212653.02379999961704, 9779674.668400000780821 ], [ 212846.473399999551475, 9779743.424499999731779 ], [ 213159.282200000248849, 9779842.085999999195337 ], [ 213178.060300000011921, 9779981.04450000077486 ], [ 213159.282200000248849, 9780116.247300000861287 ], [ 213194.042399999685585, 9780259.065199999138713 ], [ 213256.928600000217557, 9780442.987400000914931 ], [ 213347.340400000102818, 9780534.140000000596046 ], [ 213453.142900000326335, 9780766.9858 ], [ 213444.71030000038445, 9780942.486600000411272 ], [ 213368.484299999661744, 9781137.407999999821186 ], [ 213147.203499999828637, 9781306.26659999974072 ], [ 213040.755199999548495, 9781404.349899999797344 ], [ 212998.833200000226498, 9781450.684699999168515 ], [ 212932.066300000064075, 9781564.0439 ], [ 212882.533499999903142, 9781772.587300000712276 ], [ 212838.871000000275671, 9781996.17960000038147 ], [ 212744.36809999961406, 9782142.849300000816584 ], [ 212651.353600000031292, 9782221.070000000298023 ], [ 212647.32010000012815, 9782226.448000000789762 ], [ 212685.910199999809265, 9782306.384500000625849 ], [ 212715.700299999676645, 9782319.624500000849366 ], [ 212788.047500000335276, 9782313.047499999403954 ], [ 212809.162899999879301, 9782308.079199999570847 ], [ 212900.050400000065565, 9782247.487500000745058 ], [ 213028.293899999931455, 9782167.33530000038445 ], [ 213196.613599999807775, 9782119.244000000879169 ], [ 213316.841900000348687, 9782127.259199999272823 ], [ 213323.197200000286102, 9782132.459000000730157 ], [ 213330.163499999791384, 9782131.144600000232458 ], [ 213404.390300000086427, 9782192.519799999892712 ], [ 213461.610600000247359, 9782236.302300000563264 ], [ 213514.189500000327826, 9782348.971300000324845 ], [ 213483.526300000026822, 9782535.940600000321865 ], [ 213337.182799999602139, 9782703.765799999237061 ], [ 213218.561999999918044, 9782792.629499999806285 ], [ 213148.522199999541044, 9782872.675000000745058 ], [ 213011.723000000230968, 9782959.729000000283122 ], [ 212940.899000000208616, 9783024.8673 ], [ 212926.432900000363588, 9783086.953299999237061 ], [ 212981.644999999552965, 9783153.207800000905991 ], [ 212989.72649999987334, 9783153.207800000905991 ], [ 213099.191999999806285, 9783132.020899999886751 ], [ 213170.511400000192225, 9783091.442600000649691 ], [ 213220.659199999645352, 9783049.0099 ], [ 213364.933199999853969, 9782936.796700000762939 ], [ 213461.115799999795854, 9782864.659700000658631 ], [ 213541.268099999986589, 9782752.446599999442697 ], [ 213653.481200000271201, 9782656.263900000602007 ], [ 213749.134399999864399, 9782624.379499999806285 ], [ 213786.472900000400841, 9782598.720899999141693 ], [ 213989.277099999599159, 9782613.74349999986589 ], [ 214109.221599999815226, 9782703.715099999681115 ], [ 214233.393299999646842, 9782842.837099999189377 ], [ 214183.555399999953806, 9782968.375499999150634 ], [ 214109.457399999722838, 9783060.663799999281764 ], [ 214063.929299999959767, 9783082.349300000816584 ], [ 214046.226999999955297, 9783097.101199999451637 ], [ 213966.074799999594688, 9783153.207800000905991 ], [ 213861.876899999566376, 9783177.253499999642372 ], [ 213765.694199999794364, 9783209.314400000497699 ], [ 213669.511599999852479, 9783257.4057 ], [ 213657.137099999934435, 9783265.655300000682473 ], [ 213561.171500000171363, 9783407.996400000527501 ], [ 213575.946600000374019, 9783468.467800000682473 ], [ 213629.435499999672174, 9783473.816700000315905 ], [ 213668.393199999816716, 9783470.275100000202656 ], [ 213717.602900000289083, 9783449.770999999716878 ], [ 213781.724700000137091, 9783425.725400000810623 ], [ 213885.922500000335276, 9783417.710200000554323 ], [ 214070.272599999792874, 9783417.710200000554323 ], [ 214190.500900000333786, 9783433.740599999204278 ], [ 214238.592299999669194, 9783409.695000000298023 ], [ 214374.850999999791384, 9783369.61879999935627 ], [ 214495.079400000162423, 9783369.61879999935627 ], [ 214575.025600000284612, 9783391.422399999573827 ], [ 214665.291199999861419, 9783402.4265 ], [ 214739.036500000394881, 9783508.064899999648333 ], [ 214855.952200000174344, 9783698.636199999600649 ], [ 214908.991399999707937, 9784005.547900000587106 ], [ 214982.673200000077486, 9784143.083000000566244 ], [ 215046.002199999988079, 9784386.475299999117851 ], [ 215114.576399999670684, 9784427.6283 ], [ 215120.26659999974072, 9784427.6283 ], [ 215184.388399999588728, 9784403.582699999213219 ], [ 215240.494900000281632, 9784331.445699999108911 ], [ 215312.63190000038594, 9784211.217299999669194 ], [ 215391.844499999657273, 9784121.443 ], [ 215386.627700000070035, 9784119.855100000277162 ], [ 215545.073300000280142, 9784002.82149999961257 ], [ 215665.301599999889731, 9783970.760600000619888 ], [ 215699.699099999852479, 9783977.640100000426173 ], [ 215712.5, 9783973.7972999997437 ], [ 215882.315999999642372, 9784005.48619999922812 ], [ 215967.087199999950826, 9784111.395099999383092 ], [ 215963.427799999713898, 9784284.080199999734759 ], [ 215882.618900000117719, 9784365.403100000694394 ], [ 215723.699300000444055, 9784428.893899999558926 ], [ 215543.449900000356138, 9784555.860200000926852 ], [ 215450.490600000135601, 9784649.21030000038445 ], [ 215448.890599999576807, 9784652.05460000038147 ], [ 215443.737599999643862, 9784662.3607 ], [ 215402.023599999956787, 9784844.761499999091029 ], [ 215364.465099999681115, 9784968.818600000813603 ], [ 215247.92200000025332, 9785095.501900000497699 ], [ 215244.761800000444055, 9785102.348999999463558 ], [ 215224.806900000199676, 9785211.928899999707937 ], [ 215260.559000000357628, 9785300.89919999986887 ], [ 215291.58559999987483, 9785342.863500000908971 ], [ 215416.829699999652803, 9785405.485600000247359 ], [ 215537.058000000193715, 9785453.576899999752641 ], [ 215549.422399999573827, 9785465.941199999302626 ], [ 215638.847199999727309, 9785497.779899999499321 ], [ 215754.901700000278652, 9785698.8849 ], [ 215771.510499999858439, 9785781.166300000622869 ], [ 215780.720800000242889, 9785803.040699999779463 ], [ 215779.077399999834597, 9785818.653100000694394 ], [ 215786.936999999918044, 9785857.590399999171495 ], [ 215840.189600000157952, 9786026.958599999547005 ], [ 215921.099700000137091, 9786110.825300000607967 ], [ 215992.322599999606609, 9786110.825300000607967 ], [ 216075.680900000035763, 9786078.764399999752641 ], [ 216146.214800000190735, 9786008.230399999767542 ], [ 216229.573099999688566, 9785924.872099999338388 ], [ 216332.167999999597669, 9785860.75029999949038 ], [ 216460.411500000394881, 9785847.925899999216199 ], [ 216569.418499999679625, 9785854.33809999935329 ], [ 216587.847500000149012, 9785862.714999999850988 ], [ 216638.876500000245869, 9785867.999800000339746 ], [ 216764.3909, 9785933.433399999514222 ], [ 216825.905600000172853, 9785950.5208 ], [ 216928.50040000025183, 9785944.1086 ], [ 217018.270899999886751, 9785854.33809999935329 ], [ 217037.507500000298023, 9785751.743300000205636 ], [ 217011.858799999579787, 9785617.087500000372529 ], [ 216941.324799999594688, 9785501.668299999088049 ], [ 216864.378700000233948, 9785392.661299999803305 ], [ 216832.317800000309944, 9785277.24210000038147 ], [ 216857.966500000096858, 9785161.822799999266863 ], [ 216934.912700000219047, 9785097.701099999248981 ], [ 217018.270999999716878, 9785084.876700000837445 ], [ 217121.441200000233948, 9785107.803400000557303 ], [ 217125.230999999679625, 9785107.483999999240041 ], [ 217130.8602, 9785109.896600000560284 ], [ 217133.690100000239909, 9785110.525399999693036 ], [ 217268.345900000073016, 9785148.998500000685453 ], [ 217282.939100000075996, 9785161.970300000160933 ], [ 217358.11629999987781, 9785168.234999999403954 ], [ 217479.947700000368059, 9785181.059399999678135 ], [ 217563.30599999986589, 9785187.471599999815226 ], [ 217653.076500000432134, 9785136.174200000241399 ], [ 217736.434799999929965, 9785084.876700000837445 ], [ 217845.441800000146031, 9784988.6941 ], [ 217960.860999999567866, 9784905.335699999704957 ], [ 218006.187599999830127, 9784880.15430000051856 ], [ 218051.904199999757111, 9784841.545700000599027 ], [ 218273.733099999837577, 9784735.783900000154972 ], [ 218496.331299999728799, 9784682.8991 ], [ 218556.201899999752641, 9784712.853700000792742 ], [ 218557.193400000222027, 9784712.9704 ], [ 218634.139600000344217, 9784738.619100000709295 ], [ 218656.199199999682605, 9784762.884700000286102 ], [ 218750.083899999968708, 9784809.8574 ], [ 218787.098799999803305, 9784925.335799999535084 ], [ 218770.100499999709427, 9785054.733200000599027 ], [ 218670.674200000241399, 9785154.429500000551343 ], [ 218640.629099999554455, 9785203.252699999138713 ], [ 218559.233199999667704, 9785237.069199999794364 ], [ 218557.193400000222027, 9785238.768999999389052 ], [ 218551.002399999648333, 9785240.488800000399351 ], [ 218517.556800000369549, 9785254.38399999961257 ], [ 218242.221599999815226, 9785360.185399999842048 ], [ 218062.00870000012219, 9785466.023800000548363 ], [ 218041.324099999852479, 9785667.117200000211596 ], [ 218047.239000000059605, 9785785.375900000333786 ], [ 217956.893600000068545, 9785899.901599999517202 ], [ 217883.868999999947846, 9785978.790999999269843 ], [ 217755.462899999693036, 9785995.196900000795722 ], [ 217542.036999999545515, 9786160.180299999192357 ], [ 217603.739199999719858, 9786207.007999999448657 ], [ 217608.191200000233948, 9786207.007999999448657 ], [ 217659.488599999807775, 9786213.420199999585748 ], [ 217704.3739, 9786187.771500000730157 ], [ 217781.320000000298023, 9786167.252499999478459 ], [ 217832.61739999987185, 9786136.473999999463558 ], [ 217909.563500000163913, 9786123.649700000882149 ], [ 218012.158400000073016, 9786123.649700000882149 ], [ 218133.989699999801815, 9786149.29839999973774 ], [ 218191.699300000444055, 9786181.359300000593066 ], [ 218209.865500000305474, 9786201.796299999579787 ], [ 218290.184999999590218, 9786228.00929999910295 ], [ 218389.001699999906123, 9786416.322300000116229 ], [ 218406.052600000053644, 9786556.121099999174476 ], [ 218375.856900000013411, 9786692.361300000920892 ], [ 218385.291199999861419, 9786810.116499999538064 ], [ 218426.558000000193715, 9786923.332800000905991 ], [ 218586.2966, 9787000.604800000786781 ], [ 218738.138799999840558, 9787030.314300000667572 ], [ 218800.856100000441074, 9787021.354699999094009 ], [ 218929.099600000306964, 9787047.003399999812245 ], [ 218995.005800000391901, 9787075.2489 ], [ 219083.793800000101328, 9787077.313799999654293 ], [ 219205.143899999558926, 9787065.64809999987483 ], [ 219224.059799999929965, 9787059.8278 ], [ 219313.830299999564886, 9787014.942600000649691 ], [ 219410.012900000438094, 9786982.881699999794364 ], [ 219557.492999999783933, 9786937.996400000527501 ], [ 219685.736499999649823, 9786931.58420000039041 ], [ 219820.392199999652803, 9786899.523399999365211 ], [ 219910.162700000219047, 9786861.050300000235438 ], [ 219999.933199999853969, 9786771.279799999669194 ], [ 220072.073300000280142, 9786733.6415 ], [ 220147.41330000013113, 9786694.333599999547005 ], [ 220301.305499999783933, 9786643.0362 ], [ 220455.197800000198185, 9786617.387499999254942 ], [ 220543.613199999555945, 9786611.072100000455976 ], [ 220575.816700000315905, 9786603.021299999207258 ], [ 220649.588100000284612, 9786584.578400000929832 ], [ 220754.097699999809265, 9786547.692600000649691 ], [ 220870.902499999850988, 9786541.545 ], [ 220872.157599999569356, 9786541.963400000706315 ], [ 220898.36710000038147, 9786550.699899999424815 ], [ 220988.817499999888241, 9786545.557900000363588 ], [ 221106.202399999834597, 9786613.493000000715256 ], [ 221092.146599999628961, 9786739.43129999935627 ], [ 221027.334099999628961, 9786820.052899999544024 ], [ 220935.661799999885261, 9786884.148800000548363 ], [ 220692.573599999770522, 9787011.250099999830127 ], [ 220587.924999999813735, 9787082.947200000286102 ], [ 220512.208999999798834, 9787222.854399999603629 ], [ 220375.267900000326335, 9787360.386800000444055 ], [ 220302.496899999678135, 9787529.867599999532104 ], [ 220226.311499999836087, 9787582.668299999088049 ], [ 220189.827899999916553, 9787706.382400000467896 ], [ 220131.71100000012666, 9787804.911399999633431 ], [ 220067.785899999551475, 9787959.064600000157952 ], [ 220046.2977, 9788132.9189 ], [ 219962.612099999561906, 9788207.759400000795722 ], [ 219868.721199999563396, 9788222.781899999827147 ], [ 219784.460099999792874, 9788207.550799999386072 ], [ 219758.183000000193715, 9788207.550799999386072 ], [ 219690.559100000187755, 9788152.222200000658631 ], [ 219586.049599999561906, 9788035.417400000616908 ], [ 219481.540000000037253, 9787937.055400000885129 ], [ 219417.520100000314415, 9787931.933800000697374 ], [ 219401.113400000147521, 9787931.955800000578165 ], [ 219270.283599999733269, 9787961.117599999532104 ], [ 219251.161500000394881, 9787973.194700000807643 ], [ 219200.393099999986589, 9788122.864299999549985 ], [ 219268.143899999558926, 9788256.445800000801682 ], [ 219321.493400000035763, 9788445.558700000867248 ], [ 219315.193099999800324, 9788548.151000000536442 ], [ 219242.852800000458956, 9788704.545700000599027 ], [ 219091.709300000220537, 9788795.159399999305606 ], [ 219017.349000000394881, 9788777.090700000524521 ], [ 218958.99210000038147, 9788785.427400000393391 ], [ 218866.777800000272691, 9788760.836899999529123 ], [ 218850.186599999666214, 9788733.876199999824166 ], [ 218786.85869999974966, 9788674.770199999213219 ], [ 218719.234899999573827, 9788557.965299999341369 ], [ 218682.349200000055134, 9788422.717599999159575 ], [ 218608.5777000002563, 9788299.7652000002563 ], [ 218522.510999999940395, 9788219.846100000664592 ], [ 218450.128299999982119, 9788192.702500000596046 ], [ 218406.184299999848008, 9788185.950999999418855 ], [ 218352.2796, 9788156.482100000604987 ], [ 218307.3443, 9788139.926899999380112 ], [ 218215.129999999888241, 9788096.8936 ], [ 218174.518500000238419, 9788076.587799999862909 ], [ 218127.200400000438094, 9788127.060499999672174 ], [ 218192.254399999976158, 9788183.528100000694394 ], [ 218321.944799999706447, 9788291.815999999642372 ], [ 218376.561200000345707, 9788376.421299999579787 ], [ 218416.786100000143051, 9788482.2851 ], [ 218393.534199999645352, 9788700.8695 ], [ 218338.921799999661744, 9788846.913499999791384 ], [ 218280.553899999707937, 9788888.583799999207258 ], [ 218276.606100000441074, 9788896.084599999710917 ], [ 218178.244199999608099, 9788957.560799999162555 ], [ 218154.888199999928474, 9788964.233899999409914 ], [ 218146.019999999552965, 9788969.241499999538064 ], [ 218137.388899999670684, 9788969.233799999579787 ], [ 218049.144100000150502, 9788994.44649999961257 ], [ 217944.634600000455976, 9788963.708399999886751 ], [ 217846.158200000412762, 9788958.237500000745058 ], [ 217852.882799999788404, 9789025.427300000563264 ], [ 217741.396800000220537, 9789152.73340000025928 ], [ 217764.921400000341237, 9789251.536800000816584 ], [ 217819.15610000025481, 9789434.775399999693036 ], [ 217863.724700000137091, 9789557.356699999421835 ], [ 217893.430700000375509, 9789752.286499999463558 ], [ 218000.167500000447035, 9789900.815999999642372 ], [ 218083.464200000278652, 9789900.404799999669194 ], [ 218177.909199999645352, 9789886.9265 ], [ 218196.686999999918044, 9789879.704299999400973 ], [ 218307.344200000166893, 9789842.818499999120831 ], [ 218418.001400000415742, 9789812.080399999395013 ], [ 218473.417500000447035, 9789812.080399999395013 ], [ 218475.364599999971688, 9789811.422499999403954 ], [ 218633.986100000329316, 9789794.668299999088049 ], [ 218823.972799999639392, 9789974.505200000479817 ], [ 218962.135200000368059, 9790165.001700000837445 ], [ 219060.325600000098348, 9790282.7357 ], [ 219083.89879999961704, 9790293.736600000411272 ], [ 219268.526800000108778, 9790313.154999999329448 ], [ 219399.881699999794364, 9790373.660599999129772 ], [ 219459.363599999807775, 9790493.1097 ], [ 219455.728400000371039, 9790656.584699999541044 ], [ 219374.879800000227988, 9790768.272099999710917 ], [ 219263.100599999539554, 9790823.973899999633431 ], [ 219260.225499999709427, 9790826.438300000503659 ], [ 219244.838000000454485, 9790834.131999999284744 ], [ 219141.110999999567866, 9790928.841399999335408 ], [ 219110.321800000034273, 9791054.423599999397993 ], [ 219110.030299999751151, 9791255.1371 ], [ 219086.892799999564886, 9791396.729599999263883 ], [ 219025.562400000169873, 9791519.6699 ], [ 218856.967299999669194, 9791598.926599999889731 ], [ 218854.482499999925494, 9791601.038799999281764 ], [ 218737.677699999883771, 9791644.072100000455976 ], [ 218734.059600000269711, 9791644.833799999207258 ], [ 218728.959699999541044, 9791646.687400000169873 ], [ 218717.410600000061095, 9791648.338899999856949 ], [ 218620.872899999842048, 9791668.662599999457598 ], [ 218575.2818, 9791668.662599999457598 ], [ 218432.479100000113249, 9791689.082699999213219 ], [ 218263.337500000372529, 9791773.697000000625849 ], [ 218157.849999999627471, 9791890.15059999935329 ], [ 218062.554700000211596, 9792006.513599999248981 ], [ 217967.182300000451505, 9792175.89780000038445 ], [ 217897.293999999761581, 9792342.747199999168515 ], [ 217883.076399999670684, 9792446.320800000801682 ], [ 217898.666899999603629, 9792567.4561 ], [ 217943.468399999663234, 9792717.967499999329448 ], [ 218046.544700000435114, 9792809.954199999570847 ], [ 218125.072200000286102, 9792836.710999999195337 ], [ 218184.391699999570847, 9792836.710999999195337 ], [ 218275.5477, 9792848.105499999597669 ], [ 218384.943799999542534, 9792842.655899999663234 ], [ 218513.596800000406802, 9792916.709000000730157 ], [ 218607.21239999961108, 9793022.549000000581145 ], [ 218617.979299999773502, 9793213.083699999377131 ], [ 218544.630300000309944, 9793425.022199999541044 ], [ 218501.949000000022352, 9793573.69649999961257 ], [ 218505.256599999964237, 9793709.029500000178814 ], [ 218489.691700000315905, 9793828.562000000849366 ], [ 218406.049200000241399, 9793932.887800000607967 ], [ 218308.427500000223517, 9793995.933000000193715 ], [ 218194.71129999961704, 9794006.747600000351667 ], [ 218161.030899999663234, 9794001.480599999427795 ], [ 218141.358300000429153, 9794004.759400000795722 ], [ 218073.474200000055134, 9793987.78830000013113 ], [ 218061.557099999859929, 9793985.924699999392033 ], [ 217934.009600000455976, 9794026.565700000151992 ], [ 217929.219100000336766, 9794034.549900000914931 ], [ 217919.277800000272691, 9794176.08530000038445 ], [ 218025.294800000265241, 9794282.002900000661612 ], [ 218237.481200000271201, 9794387.743000000715256 ], [ 218396.127899999730289, 9794514.772399999201298 ], [ 218473.563799999654293, 9794588.088300000876188 ], [ 218512.140599999576807, 9794758.215099999681115 ], [ 218458.312300000339746, 9794981.380100000649691 ], [ 218368.476999999955297, 9795186.91579999960959 ], [ 218279.465300000272691, 9795319.179700000211596 ], [ 218235.232599999755621, 9795487.1382 ], [ 218238.087299999780953, 9795541.378200000151992 ], [ 218285.074900000356138, 9795627.27930000051856 ], [ 218417.306800000369549, 9795742.462799999862909 ], [ 218460.219399999827147, 9795842.456800000742078 ], [ 218490.824500000104308, 9796006.986300000920892 ], [ 218565.387500000186265, 9796133.999600000679493 ], [ 218626.892699999734759, 9796181.342000000178814 ], [ 218686.613099999725819, 9796198.906899999827147 ], [ 218700.49280000012368, 9796198.710999999195337 ], [ 218786.858500000089407, 9796193.313200000673532 ], [ 218860.629900000058115, 9796156.427500000223517 ], [ 218866.388299999758601, 9796148.352099999785423 ], [ 218865.835900000296533, 9796148.390799999237061 ], [ 218866.47759999986738, 9796148.227 ], [ 218866.388299999758601, 9796148.352099999785423 ], [ 218879.79079999960959, 9796147.412799999117851 ], [ 218913.927199999801815, 9796102.671599999070168 ], [ 218979.024400000460446, 9796140.458200000226498 ], [ 219014.32050000037998, 9796137.9846 ], [ 219063.501400000415742, 9796168.722699999809265 ], [ 219118.830000000074506, 9796199.460799999535084 ], [ 219192.60149999987334, 9796224.051300000399351 ], [ 219243.335099999792874, 9796269.147900000214577 ], [ 219245.393000000156462, 9796270.604000000283122 ], [ 219267.311300000175834, 9796307.798800000920892 ], [ 219274.960799999535084, 9796312.239099999889731 ], [ 219322.896800000220537, 9796404.735200000926852 ], [ 219195.805399999953806, 9796595.633400000631809 ], [ 219206.979899999685585, 9796697.075500000268221 ], [ 219343.689100000075996, 9796685.969200000166893 ], [ 219379.65639999974519, 9796661.99100000038743 ], [ 219474.036799999885261, 9796577.545399999246001 ], [ 219583.319299999624491, 9796522.904100000858307 ], [ 219643.432900000363588, 9796518.610300000756979 ], [ 219649.474600000306964, 9796515.029100000858307 ], [ 219668.344399999827147, 9796516.830900000408292 ], [ 219722.40610000025481, 9796512.9693 ], [ 219817.400000000372529, 9796531.063400000333786 ], [ 219871.974899999797344, 9796536.27449999935925 ], [ 220020.462299999780953, 9796642.01039999909699 ], [ 220189.274500000290573, 9796790.1776 ], [ 220316.46860000025481, 9796938.39130000025034 ], [ 220402.03000000026077, 9797059.354499999433756 ], [ 220496.308000000193715, 9797097.058499999344349 ], [ 220582.206500000320375, 9797101.302500000223517 ], [ 220595.951299999840558, 9797096.451400000602007 ], [ 220646.685999999754131, 9797049.944700000807643 ], [ 220708.048499999567866, 9796917.25870000012219 ], [ 220726.969499999657273, 9796904.362299999222159 ], [ 220730.785600000061095, 9796895.458200000226498 ], [ 220775.49199999962002, 9796855.719100000336766 ], [ 220830.13329999987036, 9796791.143100000917912 ], [ 220914.578900000080466, 9796761.3388 ], [ 220994.057000000029802, 9796746.436599999666214 ], [ 220995.99210000038147, 9796746.334799999371171 ], [ 221112.473199999891222, 9796720.600099999457598 ], [ 221268.899400000460446, 9796716.121400000527501 ], [ 221385.545099999755621, 9796675.861099999397993 ], [ 221406.35010000038892, 9796661.99100000038743 ], [ 221580.208700000308454, 9796562.643300000578165 ], [ 221689.491200000047684, 9796517.936799999326468 ], [ 221713.389000000432134, 9796515.945299999788404 ], [ 221778.219700000248849, 9796487.706499999389052 ], [ 221914.696100000292063, 9796504.499199999496341 ], [ 222036.990399999544024, 9796624.14919999986887 ], [ 222105.412399999797344, 9796779.584699999541044 ], [ 222107.564199999906123, 9796920.559299999848008 ], [ 222030.987399999983609, 9797160.628599999472499 ], [ 221957.006699999794364, 9797282.838300000876188 ], [ 221999.296000000089407, 9797351.098999999463558 ], [ 222121.678999999538064, 9797466.330199999734759 ], [ 222195.281299999915063, 9797502.587799999862909 ], [ 222300.479700000025332, 9797536.251299999654293 ], [ 222331.891900000162423, 9797551.957399999722838 ], [ 222399.269299999810755, 9797569.838500000536442 ], [ 222496.568099999800324, 9797668.655899999663234 ], [ 222578.056400000117719, 9797795.674799999222159 ], [ 222539.546500000171363, 9797912.011600000783801 ], [ 222413.384100000374019, 9797927.412599999457598 ], [ 222407.678899999707937, 9797926.154899999499321 ], [ 222407.278500000014901, 9797926.191299999132752 ], [ 222406.471800000406802, 9797925.88880000077188 ], [ 222295.799700000323355, 9797901.4912 ], [ 222191.083899999968708, 9797866.683499999344349 ], [ 222134.072200000286102, 9797851.680400000885129 ], [ 222074.463600000366569, 9797811.941299999132752 ], [ 221950.278900000266731, 9797752.332699999213219 ], [ 221878.799700000323355, 9797748.128000000491738 ], [ 221703.119099999777973, 9797785.051999999210238 ], [ 221599.432599999941885, 9797861.543700000271201 ], [ 221565.25800000037998, 9797976.601600000634789 ], [ 221564.145700000226498, 9798103.847100000828505 ], [ 221628.695299999788404, 9798166.097200000658631 ], [ 221693.678999999538064, 9798292.14640000090003 ], [ 221706.877000000327826, 9798298.745300000533462 ], [ 221716.811700000427663, 9798328.549699999392033 ], [ 221731.923899999819696, 9798366.33 ], [ 221814.2027000002563, 9798525.9265 ], [ 221929.30449999962002, 9798730.012000000104308 ], [ 221945.311499999836087, 9798716.005899999290705 ], [ 221965.181099999696016, 9798745.810200000181794 ], [ 221955.246299999766052, 9798775.61460000090301 ], [ 221951.795300000347197, 9798780.445900000631809 ], [ 221953.531200000084937, 9798838.132500000298023 ], [ 221955.246299999766052, 9798840.190600000321865 ], [ 222009.887500000186265, 9798874.962300000712276 ], [ 222004.920099999755621, 9798904.766699999570847 ], [ 221960.213700000196695, 9798904.766699999570847 ], [ 221931.945000000298023, 9798916.545299999415874 ], [ 221899.363900000229478, 9798975.49860000051558 ], [ 221909.47620000038296, 9799033.874099999666214 ], [ 221982.883799999952316, 9799073.061000000685453 ], [ 222089.493599999696016, 9799065.670800000429153 ], [ 222100.340599999763072, 9799062.683000000193715 ], [ 222101.784199999645352, 9799061.239399999380112 ], [ 222166.3602, 9799031.435100000351667 ], [ 222265.707899999804795, 9799031.435100000351667 ], [ 222283.459099999628961, 9799034.567600000649691 ], [ 222353.684999999590218, 9799033.854900000616908 ], [ 222455.728400000371039, 9799080.1184 ], [ 222544.496000000275671, 9799245.510299999266863 ], [ 222540.853900000452995, 9799423.080900000408292 ], [ 222493.36780000012368, 9799550.610600000247359 ], [ 222523.513799999840558, 9799679.502299999818206 ], [ 222608.259499999694526, 9799817.047399999573827 ], [ 222788.234199999831617, 9799880.588199999183416 ], [ 222904.420800000429153, 9800007.519300000742078 ], [ 222921.982800000347197, 9800207.500099999830127 ], [ 222893.286100000143051, 9800293.988199999555945 ], [ 222751.206799999810755, 9800388.578700000420213 ], [ 222667.449900000356138, 9800397.496500000357628 ], [ 222569.699799999594688, 9800373.517400000244379 ], [ 222514.077200000174344, 9800367.662399999797344 ], [ 222449.501199999824166, 9800313.021099999547005 ], [ 222335.251299999654293, 9800263.347200000658631 ], [ 222200.921699999831617, 9800223.0483 ], [ 222121.855800000019372, 9800234.88990000076592 ], [ 222027.580500000156462, 9800251.643899999558926 ], [ 221930.525200000032783, 9800399.172499999403954 ], [ 221813.901600000448525, 9800589.632500000298023 ], [ 221667.654000000096858, 9800729.193499999120831 ], [ 221517.096499999985099, 9800823.291899999603629 ], [ 221253.620900000445545, 9800959.7347 ], [ 220926.731499999761581, 9800973.355100000277162 ], [ 220924.513500000350177, 9800973.683700000867248 ], [ 220910.933299999684095, 9800980.4737 ], [ 220825.473000000230968, 9801124.406899999827147 ], [ 220820.768099999986589, 9801223.21030000038445 ], [ 220914.866499999538064, 9801279.669399999082088 ], [ 221027.784599999897182, 9801289.079199999570847 ], [ 221036.197999999858439, 9801285.597799999639392 ], [ 221068.567699999548495, 9801256.824799999594688 ], [ 221143.078499999828637, 9801177.346599999815226 ], [ 221257.3284, 9801117.7379 ], [ 221381.513100000098348, 9801068.063999999314547 ], [ 221438.137500000186265, 9801061.530500000342727 ], [ 221460.637400000356138, 9801053.833100000396371 ], [ 221483.159699999727309, 9801056.33559999987483 ], [ 221510.66509999986738, 9801053.16190000064671 ], [ 221612.289499999955297, 9801070.683299999684095 ], [ 221672.358900000341237, 9801077.357699999585748 ], [ 221818.211500000208616, 9801157.341399999335408 ], [ 221884.080400000326335, 9801270.259500000625849 ], [ 221926.424700000323355, 9801383.1776 ], [ 221926.424700000323355, 9801481.981000000610948 ], [ 222164.791899999603629, 9801473.162900000810623 ], [ 226283.947399999946356, 9801488.380999999120831 ], [ 226223.655100000090897, 9800560.6765 ], [ 226316.190399999730289, 9800397.70299999974668 ], [ 226521.49930000025779, 9800275.656899999827147 ], [ 226668.98589999973774, 9800282.2259 ], [ 226767.726099999621511, 9800235.215199999511242 ], [ 226885.412299999967217, 9800056.389699999243021 ], [ 226891.183899999596179, 9799960.154400000348687 ], [ 227618.673299999907613, 9799994.000800000503659 ], [ 228245.035400000400841, 9800023.142300000414252 ], [ 228530.14879999961704, 9800791.819900000467896 ], [ 228827.58559999987483, 9801593.721999999135733 ], [ 232561.097199999727309, 9801493.242599999532104 ], [ 234340.961099999956787, 9801445.341499999165535 ], [ 235490.714300000108778, 9801420.816999999806285 ], [ 238092.721300000324845, 9801418.958000000566244 ], [ 238092.490699999965727, 9801598.129100000485778 ], [ 239517.721800000406802, 9801587.421900000423193 ], [ 240356.128700000233948, 9801581.121400000527501 ], [ 240356.281200000084937, 9801461.675799999386072 ], [ 247471.728699999861419, 9801491.633899999782443 ], [ 253582.589499999769032, 9801518.931399999186397 ], [ 253579.385900000110269, 9801502.913599999621511 ], [ 253418.762099999934435, 9801231.088500000536442 ], [ 253294.433500000275671, 9801099.44649999961257 ], [ 253249.574699999764562, 9801062.503900000825524 ], [ 253190.155600000172853, 9801012.46680000051856 ], [ 253152.864199999719858, 9800975.175300000235438 ], [ 253023.380199999548495, 9800897.484899999573827 ], [ 252813.333599999547005, 9800699.7939 ], [ 252689.776700000278652, 9800588.592700000852346 ], [ 252541.508500000461936, 9800403.257400000467896 ], [ 252521.268400000408292, 9800354.102800000458956 ], [ 252521.40500000026077, 9800349.051300000399351 ], [ 252272.117200000211596, 9799883.891100000590086 ], [ 252195.215200000442564, 9799788.812300000339746 ], [ 252059.636900000274181, 9799711.338899999856949 ], [ 251899.799700000323355, 9799660.864 ], [ 251823.517799999564886, 9799642.7017 ], [ 251758.615699999965727, 9799623.952199999243021 ], [ 251639.543600000441074, 9799600.137700000777841 ], [ 251599.553100000135601, 9799580.1425 ], [ 251563.950500000268221, 9799570.773399999365211 ], [ 251435.730399999767542, 9799523.863600000739098 ], [ 251364.629599999636412, 9799495.4233 ], [ 251219.450400000438094, 9799451.8695 ], [ 251071.182199999690056, 9799353.024000000208616 ], [ 250972.33669999986887, 9799204.755699999630451 ], [ 250922.91399999987334, 9799056.487500000745058 ], [ 250922.91399999987334, 9798858.796499999240041 ], [ 250963.681300000287592, 9798760.954800000414252 ], [ 250968.196399999782443, 9798724.83390000090003 ], [ 251029.707700000144541, 9798650.507799999788404 ], [ 251095.893600000068545, 9798562.259999999776483 ], [ 251111.926199999637902, 9798551.160499999299645 ], [ 251118.307699999772012, 9798543.449500000104308 ], [ 251138.882699999958277, 9798532.498299999162555 ], [ 251256.517500000074506, 9798451.058800000697374 ], [ 251429.497000000439584, 9798290.434900000691414 ], [ 251577.765300000086427, 9798006.254100000485778 ], [ 251701.322100000455976, 9797845.630200000479817 ], [ 251849.590300000272691, 9797561.449400000274181 ], [ 252010.214200000278652, 9797301.980000000447035 ], [ 252096.703999999910593, 9797067.221899999305606 ], [ 252195.549499999731779, 9796857.175200000405312 ], [ 252195.549499999731779, 9796647.128599999472499 ], [ 252146.126799999736249, 9796437.081900000572205 ], [ 252133.771099999547005, 9796301.169299999251962 ], [ 252047.281299999915063, 9796054.055600000545382 ], [ 251911.368800000287592, 9795819.297499999403954 ], [ 251824.878999999724329, 9795609.250800000503659 ], [ 251738.389200000092387, 9795300.35869999974966 ], [ 251688.966500000096858, 9795028.533500000834465 ], [ 251664.255099999718368, 9794929.687999999150634 ], [ 251590.121000000275671, 9794917.332399999722838 ], [ 251478.919900000095367, 9794855.553899999707937 ], [ 251380.074400000274181, 9794806.13120000064373 ], [ 251330.651700000278652, 9794694.929999999701977 ], [ 251355.363099999725819, 9794472.527599999681115 ], [ 251394.992999999783933, 9794402.074300000444055 ], [ 251398.202600000426173, 9794388.808000000193715 ], [ 251409.177299999631941, 9794376.857799999415874 ], [ 251466.564199999906123, 9794274.8366 ], [ 251602.476700000464916, 9794163.63539999909699 ], [ 251708.753100000321865, 9794130.074500000104308 ], [ 251745.33490000013262, 9794107.34940000064671 ], [ 251781.463499999605119, 9794107.113299999386072 ], [ 251837.234699999913573, 9794089.501299999654293 ], [ 251879.660199999809265, 9794106.4715 ], [ 251984.574699999764562, 9794105.785800000652671 ], [ 252162.831799999810755, 9794199.6053 ], [ 252403.635200000368059, 9794346.589199999347329 ], [ 252606.910899999551475, 9794471.682 ], [ 252625.081799999810755, 9794483.58699999935925 ], [ 252627.998499999754131, 9794484.883300000801682 ], [ 252629.49210000038147, 9794486.476600000634789 ], [ 252697.603099999949336, 9794531.100999999791384 ], [ 252922.769999999552965, 9794728.121999999508262 ], [ 253016.589499999769032, 9794834.450799999758601 ], [ 253104.154400000348687, 9794934.525000000372529 ], [ 253263.647599999792874, 9795015.835200000554323 ], [ 253430.959099999628961, 9795045.544700000435114 ], [ 253502.187199999578297, 9795025.433299999684095 ], [ 253678.231599999591708, 9794942.043800000101328 ], [ 253974.768000000156462, 9794769.064200000837445 ], [ 254166.686999999918044, 9794678.155200000852346 ], [ 254172.458999999798834, 9794670.218699999153614 ], [ 254370.14989999961108, 9794546.661800000816584 ], [ 254617.263600000180304, 9794386.037900000810623 ], [ 254814.9545, 9794311.903799999505281 ], [ 255037.356900000013411, 9794324.259500000625849 ], [ 255160.91370000038296, 9794361.326500000432134 ], [ 255185.59360000025481, 9794383.762900000438094 ], [ 255186.947900000028312, 9794384.11710000038147 ], [ 255393.197599999606609, 9794566.009800000116229 ], [ 255493.697200000286102, 9794682.840500000864267 ], [ 255584.77489999961108, 9794795.274399999529123 ], [ 255660.149500000290573, 9794920.898800000548363 ], [ 255729.871100000105798, 9795035.845100000500679 ], [ 255771.327100000344217, 9795145.138399999588728 ], [ 255809.542600000277162, 9795248.231100000441074 ], [ 255840.476300000213087, 9795288.003100000321865 ], [ 255843.584099999628961, 9795337.728700000792742 ], [ 255874.967299999669194, 9795418.371500000357628 ], [ 255913.282700000330806, 9795596.130000000819564 ], [ 255966.044999999925494, 9795848.635099999606609 ], [ 255978.607400000095367, 9795920.24100000038743 ], [ 255991.798000000417233, 9796141.968100000172853 ], [ 256187.151999999769032, 9796301.4879 ], [ 256242.118900000117719, 9796325.917700000107288 ], [ 256414.965699999593198, 9796374.058000000193715 ], [ 256451.088399999774992, 9796381.282600000500679 ], [ 256688.365100000053644, 9796381.282600000500679 ], [ 256828.93099999986589, 9796362.94789999909699 ], [ 257026.621899999678135, 9796288.813799999654293 ], [ 257187.245799999684095, 9796227.035299999639392 ], [ 257483.782200000248849, 9796091.1228 ], [ 257767.963000000454485, 9795955.210200000554323 ], [ 258064.499400000087917, 9795844.009099999442697 ], [ 258459.881299999542534, 9795633.962400000542402 ], [ 258599.458599999547005, 9795551.8581000007689 ], [ 258622.373200000263751, 9795537.714600000530481 ], [ 258727.635200000368059, 9795473.065500000491738 ], [ 258879.974499999545515, 9795374.493000000715256 ], [ 259028.242700000293553, 9795238.580399999395013 ], [ 259201.222299999557436, 9795127.379300000146031 ], [ 259435.980299999937415, 9794954.399599999189377 ], [ 259683.093999999575317, 9794769.064400000497699 ], [ 259979.630400000140071, 9794509.594900000840425 ], [ 260177.321399999782443, 9794311.903899999335408 ], [ 260350.300900000147521, 9794064.790200000628829 ], [ 260436.790699999779463, 9793830.032199999317527 ], [ 260461.502100000157952, 9793595.2741 ], [ 260424.435100000351667, 9793372.8717 ], [ 260428.302500000223517, 9793260.716299999505281 ], [ 260418.25719999987632, 9793243.137000000104308 ], [ 260356.478799999691546, 9793020.7347 ], [ 260214.388500000350177, 9792792.154400000348687 ], [ 260078.475899999961257, 9792631.530500000342727 ], [ 259917.852099999785423, 9792470.906600000336766 ], [ 259646.026999999769032, 9792236.148499999195337 ], [ 259386.557699999772012, 9792075.524599999189377 ], [ 259334.16469999961555, 9792035.222300000488758 ], [ 259313.307400000281632, 9792020.231100000441074 ], [ 259189.272199999541044, 9791929.970799999311566 ], [ 259102.376899999566376, 9791877.833599999547005 ], [ 258954.10869999974966, 9791704.854000000283122 ], [ 258855.263299999758601, 9791494.807299999520183 ], [ 258855.263299999758601, 9791210.626499999314547 ], [ 258867.618999999947846, 9791050.002499999478459 ], [ 259015.887199999764562, 9790864.667199999094009 ], [ 259263.000900000333786, 9790654.6206 ], [ 259473.047500000335276, 9790568.130799999460578 ], [ 259720.161199999973178, 9790568.130799999460578 ], [ 259728.035199999809265, 9790569.311899999156594 ], [ 259752.364699999801815, 9790567.384800000116229 ], [ 259843.442400000058115, 9790562.9879 ], [ 259953.176599999889731, 9790603.083100000396371 ], [ 259967.27489999961108, 9790605.197799999266863 ], [ 260276.166899999603629, 9790679.332000000402331 ], [ 260523.280600000172853, 9790802.88880000077188 ], [ 260761.776200000196695, 9790945.98619999922812 ], [ 260913.762400000356138, 9790972.523499999195337 ], [ 260933.746399999596179, 9790975.86849999986589 ], [ 261054.575000000186265, 9790975.86849999986589 ], [ 261276.977300000376999, 9790889.378699999302626 ], [ 261400.534199999645352, 9790790.53319999948144 ], [ 261499.379700000397861, 9790741.110400000587106 ], [ 261598.22510000038892, 9790654.6206 ], [ 261689.032700000330806, 9790541.111099999397993 ], [ 261721.463899999856949, 9790485.761800000444055 ], [ 261783.560399999842048, 9790370.439799999818206 ], [ 261820.627399999648333, 9790172.748800000175834 ], [ 261894.761599999852479, 9789975.057900000363588 ], [ 261993.606999999843538, 9789802.078199999406934 ], [ 262141.875199999660254, 9789542.608799999579787 ], [ 262191.298000000417233, 9789419.051899999380112 ], [ 262191.298000000417233, 9789270.783700000494719 ], [ 262148.078499999828637, 9789141.125199999660254 ], [ 262068.713399999774992, 9789043.644099999219179 ], [ 261931.828599999658763, 9788949.535800000652671 ], [ 261911.912200000137091, 9788918.755799999460578 ], [ 261818.258200000040233, 9788844.446000000461936 ], [ 261588.993599999696016, 9788615.181399999186397 ], [ 261380.457100000232458, 9788426.744799999520183 ], [ 261249.807699999772012, 9788304.88910000026226 ], [ 261208.351700000464916, 9788249.614399999380112 ], [ 261152.198900000192225, 9788173.523299999535084 ], [ 261029.863699999637902, 9788059.926300000399351 ], [ 260770.394399999640882, 9787676.900000000372529 ], [ 260646.837600000202656, 9787330.9408 ], [ 260671.548899999819696, 9787022.048599999397993 ], [ 260733.327399999834597, 9786737.867799999192357 ], [ 260832.172799999825656, 9786614.311000000685453 ], [ 260911.704800000414252, 9786534.778999999165535 ], [ 260987.055499999783933, 9786443.047700000926852 ], [ 261141.065000000409782, 9786231.284700000658631 ], [ 261252.266099999658763, 9786181.8619 ], [ 261351.111600000411272, 9786120.083499999716878 ], [ 261524.091199999675155, 9786045.949400000274181 ], [ 261697.070700000040233, 9785959.459599999710917 ], [ 261870.050300000235438, 9785885.325500000268221 ], [ 261968.895800000056624, 9785774.124299999326468 ], [ 262043.029900000430644, 9785564.077600000426173 ], [ 261993.607200000435114, 9785391.097999999299645 ], [ 261845.338999999687076, 9785292.252499999478459 ], [ 261660.003700000233948, 9785218.1184 ], [ 261499.379800000227988, 9785143.984200000762939 ], [ 261314.044599999673665, 9785057.494400000199676 ], [ 261066.930900000035763, 9784909.226199999451637 ], [ 260931.018400000408292, 9784785.669299999251962 ], [ 260906.307000000029802, 9784699.179500000551343 ], [ 260893.951299999840558, 9784501.488500000908971 ], [ 260918.662700000219047, 9784365.575899999588728 ], [ 260968.085400000214577, 9784229.6634 ], [ 261042.219499999657273, 9784081.395099999383092 ], [ 261103.997999999672174, 9783908.415500000119209 ], [ 261239.910500000230968, 9783661.301799999549985 ], [ 261289.333200000226498, 9783488.322200000286102 ], [ 261326.400299999862909, 9783438.899399999529123 ], [ 261474.668499999679625, 9783204.1414 ], [ 261660.003800000064075, 9783031.161800000816584 ], [ 261931.82880000025034, 9782858.182099999859929 ], [ 262191.298200000077486, 9782709.913899999111891 ], [ 262475.478900000452995, 9782697.558199999853969 ], [ 262673.169900000095367, 9782746.981000000610948 ], [ 262969.706299999728799, 9782833.470799999311566 ], [ 263315.665400000289083, 9783031.161800000816584 ], [ 263436.214599999599159, 9783121.573699999600649 ], [ 263443.838100000284612, 9783126.022700000554323 ], [ 263637.299700000323355, 9783203.909900000318885 ], [ 263777.092799999751151, 9783226.619999999180436 ], [ 263945.80530000012368, 9783167.074400000274181 ], [ 264106.42920000012964, 9782981.739099999889731 ], [ 264168.207600000314415, 9782746.981000000610948 ], [ 264217.630300000309944, 9782623.424200000241399 ], [ 264217.630400000140071, 9782450.444499999284744 ], [ 264168.207600000314415, 9782116.841 ], [ 264195.770600000396371, 9781910.118899999186397 ], [ 264195.700199999846518, 9781876.687999999150634 ], [ 264202.692499999888241, 9781858.2043999992311 ], [ 264217.630400000140071, 9781746.170399999246001 ], [ 264304.120199999772012, 9781499.056600000709295 ], [ 264440.032700000330806, 9781276.65430000051856 ], [ 264650.079300000332296, 9781004.829199999570847 ], [ 264897.192999999970198, 9780757.715399999171495 ], [ 265255.50789999961853, 9780498.245999999344349 ], [ 265466.783900000154972, 9780345.657800000160933 ], [ 265475.184799999929965, 9780338.416999999433756 ], [ 265482.88150000013411, 9780331.230399999767542 ], [ 265650.8898, 9780115.219699999317527 ], [ 265791.905500000342727, 9779854.88289999961853 ], [ 265803.064500000327826, 9779825.869400000199676 ], [ 265841.327100000344217, 9779632.349099999293685 ], [ 265860.9364, 9779509.79109999909997 ], [ 265873.292100000195205, 9779102.053400000557303 ], [ 265873.292100000195205, 9778669.604399999603629 ], [ 265799.157999999821186, 9778237.155300000682473 ], [ 265766.714599999599159, 9777966.793199999257922 ], [ 265730.909799999557436, 9777856.991900000721216 ], [ 265589.111399999819696, 9777532.88120000064373 ], [ 265366.709099999628961, 9777075.72069999948144 ], [ 265156.662499999627471, 9776742.117200000211596 ], [ 265057.816999999806285, 9776408.513599999248981 ], [ 265061.529299999587238, 9776356.542199999094009 ], [ 265058.542899999767542, 9776347.460999999195337 ], [ 265033.105700000189245, 9776322.023800000548363 ], [ 264996.038599999621511, 9776025.487299999222159 ], [ 264986.320899999700487, 9775947.7456 ], [ 264963.265300000086427, 9775815.310100000351667 ], [ 264967.582799999974668, 9775797.840299999341369 ], [ 264958.971599999815226, 9775728.950799999758601 ], [ 265020.75, 9775457.125700000673532 ], [ 265094.884100000374019, 9775259.434699999168515 ], [ 265094.884100000374019, 9775086.4551 ], [ 265144.306900000199676, 9774913.47550000064075 ], [ 265121.461900000460446, 9774787.828199999406934 ], [ 265113.620799999684095, 9774772.086100000888109 ], [ 264971.3273, 9774641.650399999693036 ], [ 264803.4057, 9774581.678400000557303 ], [ 264778.597500000149012, 9774581.678400000557303 ], [ 264768.963200000114739, 9774579.871899999678135 ], [ 264711.857900000177324, 9774579.871899999678135 ], [ 264613.389899999834597, 9774570.920299999415874 ], [ 264618.426300000399351, 9774606.175100000575185 ], [ 264565.664099999703467, 9774658.937400000169873 ], [ 264541.72719999961555, 9774635.000499999150634 ], [ 264526.522699999623001, 9774654.006100000813603 ], [ 264480.076399999670684, 9774561.113399999216199 ], [ 264419.939799999818206, 9774621.250099999830127 ], [ 264335.459699999541044, 9774631.428400000557303 ], [ 264316.476099999621511, 9774641.650399999693036 ], [ 264267.053299999795854, 9774616.938999999314547 ], [ 264205.27489999961108, 9774518.093499999493361 ], [ 264094.073699999600649, 9774518.093499999493361 ], [ 263970.516900000162423, 9774481.026399999856949 ], [ 263834.604399999603629, 9774258.624099999666214 ], [ 263760.470300000160933, 9773974.443299999460578 ], [ 263884.027099999599159, 9773690.262499999254942 ], [ 263945.80559999961406, 9773492.57149999961257 ], [ 264143.496500000357628, 9773282.524800000712276 ], [ 264440.0329, 9773060.122400000691414 ], [ 264699.502299999818206, 9772973.63260000012815 ], [ 265008.394399999640882, 9772887.142799999564886 ], [ 265181.373999999836087, 9772751.2303 ], [ 265366.70920000039041, 9772429.9824 ], [ 265465.554700000211596, 9772170.513000000268221 ], [ 265497.005599999800324, 9772107.611300000920892 ], [ 265527.333200000226498, 9771935.755000000819564 ], [ 265548.236999999731779, 9771695.360300000756979 ], [ 265555.873399999924004, 9771646.635199999436736 ], [ 265564.59389999974519, 9771610.788799999281764 ], [ 265601.467299999669194, 9771490.950200000777841 ], [ 265638.534300000406802, 9771268.547900000587106 ], [ 265613.822999999858439, 9771083.212600000202656 ], [ 265514.977500000037253, 9770910.232899999246001 ], [ 265329.642199999652803, 9770712.541899999603629 ], [ 265110.10329999960959, 9770554.175799999386072 ], [ 265069.161399999633431, 9770550.3849 ], [ 265069.161399999633431, 9770549.626700000837445 ], [ 265044.14130000025034, 9770543.561200000345707 ], [ 264870.4227, 9770448.9539 ], [ 264736.56940000038594, 9770428.361099999397993 ], [ 264681.647900000214577, 9770432.022600000724196 ], [ 264508.504999999888241, 9770472.503900000825524 ], [ 264291.438400000333786, 9770574.451999999582767 ], [ 264192.919300000183284, 9770663.119200000539422 ], [ 263933.450000000186265, 9770774.320299999788404 ], [ 263612.202200000174344, 9770947.299900000914931 ], [ 263476.28969999961555, 9771033.78969999961555 ], [ 263290.954400000162423, 9771058.5011 ], [ 263093.263500000350177, 9770996.722699999809265 ], [ 262932.639600000344217, 9770823.743100000545382 ], [ 262895.572499999776483, 9770663.119100000709295 ], [ 262969.706600000150502, 9770465.428099999204278 ], [ 263105.619199999608099, 9770243.025800000876188 ], [ 263229.175999999977648, 9770082.401799999177456 ], [ 263414.511300000362098, 9769909.4222 ], [ 263501.0011, 9769798.221000000834465 ], [ 263550.423799999989569, 9769563.462999999523163 ], [ 263501.061300000175834, 9769106.8596 ], [ 263500.776100000366569, 9769105.627599999308586 ], [ 263328.021499999798834, 9768587.363700000569224 ], [ 263308.93819999974221, 9768491.947200000286102 ], [ 263292.460699999704957, 9768444.925899999216199 ], [ 263079.527300000190735, 9768053.605799999088049 ], [ 263068.419900000095367, 9768033.170700000599027 ], [ 262957.350999999791384, 9767895.4452 ], [ 262710.237399999983609, 9767673.042899999767542 ], [ 262455.700899999588728, 9767483.620300000533462 ], [ 262296.321999999694526, 9767407.395600000396371 ], [ 262175.144399999640882, 9767326.610500000417233 ], [ 262134.831699999980628, 9767308.653000000864267 ], [ 261920.014000000432134, 9767178.003699999302626 ], [ 261871.072300000116229, 9767153.489800000563264 ], [ 261669.500500000081956, 9767084.199500000104308 ], [ 261666.900399999693036, 9767064.637199999764562 ], [ 261481.968999999575317, 9766990.573899999260902 ], [ 261418.144399999640882, 9766983.913899999111891 ], [ 261395.531999999657273, 9766982.657700000330806 ], [ 261391.763299999758601, 9766960.045299999415874 ], [ 261084.611600000411272, 9766818.717800000682473 ], [ 260800.072300000116229, 9766632.1656 ], [ 260746.955400000326335, 9766546.686000000685453 ], [ 260640.660299999639392, 9766468.363299999386072 ], [ 260529.45920000039041, 9766208.893899999558926 ], [ 260541.814899999648333, 9765924.71309999935329 ], [ 260628.304700000211596, 9765751.7335 ], [ 260751.861499999649823, 9765603.465199999511242 ], [ 260974.263799999840558, 9765467.552699999883771 ], [ 261209.021800000220537, 9765381.062899999320507 ], [ 261323.427799999713898, 9765360.261800000444055 ], [ 261379.828999999910593, 9765340.11849999986589 ], [ 261470.476099999621511, 9765303.331000000238419 ], [ 261519.615399999544024, 9765301.646199999377131 ], [ 261616.759399999864399, 9765282.217399999499321 ], [ 261802.094700000248849, 9765269.861700000241399 ], [ 262012.14130000025034, 9765220.438999999314547 ], [ 262172.7652000002563, 9765109.237800000235438 ], [ 262321.033400000073016, 9764874.479800000786781 ], [ 262432.234600000083447, 9764540.876199999824166 ], [ 262469.301599999889731, 9764318.473799999803305 ], [ 262481.657300000078976, 9764108.427200000733137 ], [ 262456.945899999700487, 9763848.957699999213219 ], [ 262382.811900000087917, 9763601.844000000506639 ], [ 262222.188000000081956, 9763342.374600000679493 ], [ 262051.408699999563396, 9763114.668800000101328 ], [ 261983.036500000394881, 9763065.123700000345707 ], [ 261790.890800000168383, 9762957.522099999710917 ], [ 261633.251500000245869, 9762899.795099999755621 ], [ 261398.612399999983609, 9762912.782500000670552 ], [ 261326.201999999582767, 9762942.880799999460578 ], [ 261233.733300000429153, 9762996.415300000458956 ], [ 261110.176400000229478, 9763058.19370000064373 ], [ 260825.995699999853969, 9763280.596100000664592 ], [ 260684.881099999882281, 9763415.296399999409914 ], [ 260641.013700000010431, 9763460.850999999791384 ], [ 260414.167000000365078, 9763788.133600000292063 ], [ 260292.085400000214577, 9763956.969900000840425 ], [ 260256.035699999891222, 9763971.179300000891089 ], [ 260245.278500000014901, 9763984.870200000703335 ], [ 260022.876199999824166, 9764083.715700000524521 ], [ 259849.896599999628961, 9764071.359999999403954 ], [ 259701.628399999812245, 9764059.004300000146031 ], [ 259701.628399999812245, 9764083.715700000524521 ], [ 259775.762500000186265, 9764133.138499999418855 ], [ 259738.69550000037998, 9764170.20549999922514 ], [ 259664.5614, 9764145.494200000539422 ], [ 259578.071600000374019, 9764021.937300000339746 ], [ 259528.648900000378489, 9763960.158800000324845 ], [ 259466.870500000193715, 9763861.313300000503659 ], [ 259392.736399999819696, 9763663.622400000691414 ], [ 259392.736399999819696, 9763478.287000000476837 ], [ 259429.803399999625981, 9763342.374500000849366 ], [ 259479.22620000038296, 9763181.750600000843406 ], [ 259627.494400000199676, 9762984.059599999338388 ], [ 259751.051199999637902, 9762811.08 ], [ 259862.252399999648333, 9762625.744699999690056 ], [ 260059.943300000391901, 9762316.85249999910593 ], [ 260269.990000000223517, 9761921.470499999821186 ], [ 260344.124099999666214, 9761711.423800000920892 ], [ 260331.768400000408292, 9761489.021500000730157 ], [ 260277.135800000280142, 9761364.1469 ], [ 260131.041600000113249, 9761203.639799999073148 ], [ 259965.277999999932945, 9761099.208799999207258 ], [ 259934.190399999730289, 9761094.5456000007689 ], [ 259710.24959999974817, 9761094.5456000007689 ], [ 259629.961799999698997, 9761116.968399999663234 ], [ 259454.5148, 9761180.129300000146031 ], [ 259433.484400000423193, 9761189.242499999701977 ], [ 259198.545800000429153, 9761303.21000000089407 ], [ 259095.589800000190735, 9761335.663499999791384 ], [ 259083.8443, 9761340.753200000151992 ], [ 258787.307900000363588, 9761513.732799999415874 ], [ 258503.127199999988079, 9761699.068099999800324 ], [ 258231.302099999971688, 9761797.913599999621511 ], [ 258008.899799999780953, 9761810.269300000742078 ], [ 257798.853199999779463, 9761760.8465 ], [ 257601.162299999967217, 9761612.578299999237061 ], [ 257514.672500000335276, 9761427.243000000715256 ], [ 257514.672500000335276, 9761387.112600000575185 ], [ 257509.317200000397861, 9761376.805299999192357 ], [ 257509.317200000397861, 9761317.928999999538064 ], [ 257514.672500000335276, 9761235.4583 ], [ 257514.672500000335276, 9761204.840600000694394 ], [ 257539.383899999782443, 9761007.149599999189377 ], [ 257625.873599999584258, 9760834.17 ], [ 257751.492300000041723, 9760691.80210000090301 ], [ 257775.126199999824166, 9760648.6447 ], [ 257822.746600000187755, 9760585.439300000667572 ], [ 257876.427899999544024, 9760523.0998 ], [ 257904.134399999864399, 9760476.345100000500679 ], [ 257966.473899999633431, 9760401.88399999961257 ], [ 258058.251600000075996, 9760336.0811 ], [ 258084.796500000171363, 9760316.667700000107288 ], [ 258149.983099999837577, 9760255.55519999936223 ] ] ] ] } },
{ "type": "Feature", "properties": { "OBJECTID": 2, "ID": 2.0, "AREA": 947597921.63100004, "PERIMETER": 150905.41411894676, "HECTARES": 94759.792163064383, "SOURCETHM": "Blok_a.shp" }, "geometry": { "type": "MultiPolygon", "coordinates": [ [ [ [ 258166.391200000420213, 9760240.17259999923408 ], [ 258231.302199999801815, 9760179.318600000813603 ], [ 258466.060200000181794, 9759993.983300000429153 ], [ 258624.836500000208616, 9759886.0154 ], [ 258626.684100000187755, 9759882.7820999994874 ], [ 258787.308000000193715, 9759746.869599999859929 ], [ 259009.71030000038445, 9759598.601299999281764 ], [ 259108.555800000205636, 9759450.333100000396371 ], [ 259306.246700000017881, 9759116.729499999433756 ], [ 259454.514899999834597, 9758758.414599999785423 ], [ 259553.360399999655783, 9758486.589500000700355 ], [ 259775.762699999846518, 9758202.408700000494719 ], [ 259985.809399999678135, 9757905.872199999168515 ], [ 260134.077600000426173, 9757646.402799999341369 ], [ 260269.990100000053644, 9757362.221999999135733 ], [ 260368.83559999987483, 9757016.262800000607967 ], [ 260381.191300000064075, 9756657.94789999909699 ], [ 260455.325400000438094, 9756237.854499999433756 ], [ 260467.681099999696016, 9756064.874900000169873 ], [ 260578.88219999987632, 9755793.049799999222159 ], [ 260640.660699999891222, 9755484.157600000500679 ], [ 260727.150500000454485, 9755274.11089999973774 ], [ 260776.573200000450015, 9755101.131300000473857 ], [ 260875.418700000271201, 9754767.527799999341369 ], [ 260912.485700000077486, 9754582.192500000819564 ], [ 260986.619800000451505, 9754396.857200000435114 ], [ 261034.368599999696016, 9754186.762399999424815 ], [ 261057.087500000372529, 9754094.278999999165535 ], [ 261174.844200000166893, 9753829.32630000077188 ], [ 261410.357699999585748, 9753534.934399999678135 ], [ 261557.553700000047684, 9753387.738399999216199 ], [ 261498.675300000235438, 9753299.420800000429153 ], [ 261027.648299999535084, 9753269.981599999591708 ], [ 260762.695600000210106, 9753181.664000000804663 ], [ 260939.330799999646842, 9752946.150499999523163 ], [ 260792.134899999946356, 9752651.758600000292063 ], [ 260644.938900000415742, 9752504.562599999830127 ], [ 260468.30379999987781, 9752681.197799999266863 ], [ 260262.229500000365078, 9752681.197699999436736 ], [ 260056.155199999921024, 9752504.562599999830127 ], [ 259791.202499999664724, 9752239.6097999997437 ], [ 259467.371500000357628, 9752062.974700000137091 ], [ 259290.736399999819696, 9751709.704299999400973 ], [ 259172.979700000025332, 9751385.873199999332428 ], [ 259231.858, 9751238.677200000733137 ], [ 259496.810700000263751, 9751032.602900000289083 ], [ 259526.249900000169873, 9750885.406899999827147 ], [ 259379.053999999538064, 9750649.893400000408292 ], [ 259025.783800000324845, 9750649.893400000408292 ], [ 258554.756799999624491, 9750532.136600000783801 ], [ 257965.973100000061095, 9750532.136600000783801 ], [ 257583.263600000180304, 9750649.893300000578165 ], [ 257347.750199999660254, 9750502.6974 ], [ 257200.55420000012964, 9750208.305400000885129 ], [ 257112.236700000241399, 9749972.791899999603629 ], [ 256611.770499999634922, 9749678.399900000542402 ], [ 256287.939500000327826, 9749560.643100000917912 ], [ 256111.304399999789894, 9749177.933599999174476 ], [ 256037.706399999558926, 9748751.065300000831485 ], [ 255978.828099999576807, 9748486.112600000575185 ], [ 256008.267300000414252, 9748073.963899999856949 ], [ 256243.780799999833107, 9747809.011099999770522 ], [ 256449.855100000277162, 9747544.058399999514222 ], [ 256714.807799999602139, 9747279.105699999257922 ], [ 256920.882100000046194, 9747220.227299999445677 ], [ 257215.273900000378489, 9747279.105699999257922 ], [ 257480.226599999703467, 9747279.105699999257922 ], [ 258010.13190000038594, 9747190.788100000470877 ], [ 258245.645399999804795, 9747190.788100000470877 ], [ 258510.598100000061095, 9747102.470599999651313 ], [ 258746.111600000411272, 9746925.835400000214577 ], [ 259069.942699999548495, 9746690.321900000795722 ], [ 259423.212899999693036, 9746425.369100000709295 ], [ 259570.408800000324845, 9746160.416400000452995 ], [ 259688.165599999949336, 9745807.146099999547005 ], [ 259688.165599999949336, 9745336.119000000879169 ], [ 259599.848000000230968, 9745012.287900000810623 ], [ 259393.77379999961704, 9744541.260800000280142 ], [ 259217.138700000010431, 9744011.3553 ], [ 259069.942699999548495, 9743746.402499999850988 ], [ 258952.185999999754131, 9743393.132200000807643 ], [ 258746.111700000241399, 9742922.105100000277162 ], [ 258481.159099999815226, 9742686.591600000858307 ], [ 258245.645600000396371, 9742627.713199999183416 ], [ 257980.692900000140071, 9742480.517200000584126 ], [ 257686.300999999977648, 9742333.32120000012219 ], [ 257303.591599999926984, 9742303.881999999284744 ], [ 256891.442999999970198, 9742274.442800000309944 ], [ 256626.490399999544024, 9742156.686000000685453 ], [ 256479.294400000013411, 9741891.733300000429153 ], [ 256214.341799999587238, 9741567.902200000360608 ], [ 255978.828300000168383, 9741126.314200000837445 ], [ 255772.753999999724329, 9740979.118300000205636 ], [ 255566.679700000211596, 9741008.557499999180436 ], [ 255331.166199999861419, 9741126.314200000837445 ], [ 255007.335199999623001, 9741302.949400000274181 ], [ 254830.700000000186265, 9741567.902100000530481 ], [ 254624.62569999974221, 9741567.902100000530481 ], [ 254389.112300000153482, 9741420.7061 ], [ 254212.477099999785423, 9741214.631799999624491 ], [ 254212.47719999961555, 9740979.118200000375509 ], [ 254418.551500000059605, 9740684.726299999281764 ], [ 254654.065000000409782, 9740419.773600000888109 ], [ 254771.821700000204146, 9740066.5033 ], [ 254712.943300000391901, 9739830.989700000733137 ], [ 254359.673100000247359, 9739683.793700000271201 ], [ 253741.450199999846518, 9739507.158600000664592 ], [ 252976.03139999974519, 9739389.401799999177456 ], [ 251695.426799999549985, 9739462.99970000050962 ], [ 250871.129599999636412, 9739404.121300000697374 ], [ 250429.541799999773502, 9739109.729299999773502 ], [ 250076.271599999628961, 9738844.776599999517202 ], [ 249752.440600000321865, 9738167.675100000575185 ], [ 249664.122999999672174, 9737608.33049999922514 ], [ 249222.535299999639392, 9736872.350600000470877 ], [ 248810.386699999682605, 9736548.519500000402331 ], [ 248192.163800000213087, 9735753.6612 ], [ 247809.454400000162423, 9735194.316600000485778 ], [ 247456.184200000017881, 9734605.532700000330806 ], [ 246573.008600000292063, 9733751.7961 ], [ 245233.525700000114739, 9733089.414200000464916 ], [ 244762.498700000345707, 9732971.657400000840425 ], [ 243791.005599999800324, 9733089.414100000634789 ], [ 242996.147599999792874, 9733295.488399999216199 ], [ 242142.411199999973178, 9733854.833100000396371 ], [ 241524.18819999974221, 9734178.664200000464916 ], [ 240964.843700000084937, 9734060.907400000840425 ], [ 240434.938400000333786, 9733825.393799999728799 ], [ 239875.593799999915063, 9733913.711400000378489 ], [ 239434.006099999882281, 9733972.589800000190735 ], [ 238550.830500000156462, 9734208.10329999960959 ], [ 237844.290000000037253, 9734414.1776 ], [ 236593.12459999974817, 9734517.214800000190735 ], [ 236063.2193, 9733722.356499999761581 ], [ 235651.070700000040233, 9733516.282199999317527 ], [ 235297.800499999895692, 9733045.255100000649691 ], [ 234767.895100000314415, 9732750.863099999725819 ], [ 234296.868200000375509, 9732515.349600000306964 ], [ 233884.719600000418723, 9732485.910299999639392 ], [ 233560.888500000350177, 9732279.835999999195337 ], [ 232883.787299999967217, 9731278.903400000184774 ], [ 232589.395399999804795, 9730866.754699999466538 ], [ 232088.929299999959767, 9730484.045099999755621 ], [ 231617.902300000190735, 9730189.653200000524521 ], [ 230808.324699999764562, 9729792.224099999293685 ], [ 229984.027499999850988, 9729792.223999999463558 ], [ 229218.60869999974966, 9729703.906400000676513 ], [ 228305.993900000117719, 9729703.906400000676513 ], [ 227275.622399999760091, 9729733.345599999651313 ], [ 226156.933400000445545, 9729703.906300000846386 ], [ 225244.318599999882281, 9729733.345499999821186 ], [ 224243.386300000362098, 9729645.027899999171495 ], [ 222506.474299999885261, 9729733.3454 ], [ 221770.494699999690056, 9729733.3454 ], [ 221619.508899999782443, 9729684.562999999150634 ], [ 221221.58530000038445, 9729648.3881 ], [ 220871.894899999722838, 9729648.3881 ], [ 220715.137099999934435, 9729732.7961 ], [ 220341.330099999904633, 9729805.145899999886751 ], [ 220003.697900000028312, 9729901.612199999392033 ], [ 219786.648699999786913, 9729998.078600000590086 ], [ 219617.832600000314415, 9730203.069499999284744 ], [ 219292.258799999952316, 9730456.293700000271201 ], [ 218858.160299999639392, 9730818.042500000447035 ], [ 218592.553700000047684, 9731189.909900000318885 ], [ 218333.877199999988079, 9731661.614199999719858 ], [ 218120.849399999715388, 9732118.102299999445677 ], [ 217892.605399999767542, 9732544.1579 ], [ 217679.5777000002563, 9732741.969399999827147 ], [ 217344.819799999706447, 9732924.564600000157952 ], [ 217055.710699999704957, 9733031.078500000759959 ], [ 216781.817900000140071, 9733031.078500000759959 ], [ 216340.54619999974966, 9732970.213400000706315 ], [ 216021.004599999636412, 9732909.348300000652671 ], [ 215518.86780000012368, 9732970.213400000706315 ], [ 215153.677400000393391, 9733107.159800000488758 ], [ 214895.000900000333786, 9733304.971300000324845 ], [ 214758.05449999962002, 9733426.701500000432134 ], [ 214004.849200000055134, 9734423.367200000211596 ], [ 213837.470300000160933, 9734727.692600000649691 ], [ 213760.248399999924004, 9734864.9759 ], [ 213759.948400000110269, 9734882.736400000751019 ], [ 213746.1727, 9734910.287799999117851 ], [ 213533.144899999722838, 9735260.262000000104308 ], [ 213213.60329999960959, 9735808.047700000926852 ], [ 212970.143000000156462, 9736371.049699999392033 ], [ 212772.331600000150502, 9736888.402899999171495 ], [ 212582.128200000151992, 9737245.985300000756979 ], [ 212308.235399999655783, 9737672.04079999960959 ], [ 212019.126299999654293, 9738143.745200000703335 ], [ 211806.098600000143051, 9738539.368200000375509 ], [ 211593.07079999987036, 9739148.018999999389052 ], [ 211501.773199999704957, 9739741.453600000590086 ], [ 211486.556900000199676, 9740334.8881 ], [ 211425.691800000146031, 9740821.808800000697374 ], [ 211265.921000000089407, 9741346.770099999383092 ], [ 211098.542100000195205, 9741681.528000000864267 ], [ 210992.028199999593198, 9742092.3673 ], [ 210931.163099999539554, 9742472.7741 ], [ 210702.919099999591708, 9743035.776100000366569 ], [ 210383.377500000409782, 9743766.1570999994874 ], [ 210246.43099999986589, 9744435.673000000417233 ], [ 210132.309000000357628, 9744838.904100000858307 ], [ 209949.713800000026822, 9745219.310900000855327 ], [ 209736.686099999584258, 9745584.50139999948442 ], [ 209645.388399999588728, 9745904.042999999597669 ], [ 209630.172199999913573, 9746223.584699999541044 ], [ 209736.685999999754131, 9746634.424000000581145 ], [ 209812.767300000414252, 9746953.965700000524521 ], [ 209843.199900000356138, 9747303.939899999648333 ], [ 209812.767300000414252, 9747699.562999999150634 ], [ 209822.720200000330806, 9747741.365000000223517 ], [ 209888.848600000143051, 9748019.104599999263883 ], [ 209995.362499999813735, 9748292.997500000521541 ], [ 210223.606499999761581, 9748521.241599999368191 ], [ 210558.364299999549985, 9748658.187999999150634 ], [ 210847.473399999551475, 9748779.918199999257922 ], [ 211182.231300000101328, 9748932.080900000408292 ], [ 211410.475300000049174, 9749129.892400000244379 ], [ 211714.800599999725819, 9749358.136499999091029 ], [ 211958.260800000280142, 9749601.596799999475479 ], [ 212156.072300000116229, 9749875.489700000733137 ], [ 212308.235000000335276, 9750118.949999999254942 ], [ 212490.830099999904633, 9750484.14049999974668 ], [ 212627.776499999687076, 9750712.384600000455976 ], [ 212719.074099999852479, 9751062.358799999579787 ], [ 212779.939199999906123, 9751351.468000000342727 ], [ 212825.588000000454485, 9751807.9561 ], [ 212871.236700000241399, 9752218.795399999246001 ], [ 212962.534300000406802, 9752583.98589999973774 ], [ 213099.480700000189245, 9752873.095000000670552 ], [ 213185.993200000375509, 9753074.957599999383092 ], [ 213229.594399999827147, 9753176.693800000473857 ], [ 213236.427099999971688, 9753192.636700000613928 ], [ 213358.157200000248849, 9753451.313300000503659 ], [ 213435.621899999678135, 9753548.144099999219179 ], [ 213436.836400000378489, 9753548.549000000581145 ], [ 213410.516200000420213, 9753505.893400000408292 ], [ 213304.978900000452995, 9753270.546399999409914 ], [ 213217.614500000141561, 9753105.974999999627471 ], [ 213429.335900000296533, 9753105.974999999627471 ], [ 214169.22620000038296, 9753094.349199999123812 ], [ 215555.96059999987483, 9753077.745500000193715 ], [ 216807.469800000078976, 9753099.4156 ], [ 217528.257100000046194, 9753099.4156 ], [ 218875.922600000165403, 9753119.68129999935627 ], [ 219458.559899999760091, 9753114.614900000393391 ], [ 220481.97510000038892, 9753145.013299999758601 ], [ 221525.655899999663234, 9753155.146199999377131 ], [ 222655.465699999593198, 9753160.212600000202656 ], [ 224250.65610000025481, 9753167.139000000432134 ], [ 226480.606499999761581, 9753175.411800000816584 ], [ 227970.13150000013411, 9753175.411800000816584 ], [ 229266.102699999697506, 9753195.36849999986589 ], [ 229935.899299999698997, 9753185.544600000604987 ], [ 230574.071000000461936, 9753181.253799999132752 ], [ 231177.170099999755621, 9753170.3454 ], [ 232048.592899999581277, 9753170.3454 ], [ 232332.311999999918044, 9753160.212600000202656 ], [ 232648.941499999724329, 9753143.614399999380112 ], [ 232898.302299999631941, 9753138.909499999135733 ], [ 233679.977500000037253, 9753139.946900000795722 ], [ 234239.205099999904633, 9753129.499600000679493 ], [ 234982.045300000347197, 9753124.747700000181794 ], [ 235792.671099999919534, 9753134.8805 ], [ 236793.97759999986738, 9753129.499600000679493 ], [ 237697.641900000162423, 9753124.747700000181794 ], [ 239131.4364, 9753129.814099999144673 ], [ 240063.656200000084937, 9753119.68129999935627 ], [ 240661.492700000293553, 9753099.4156 ], [ 241226.013899999670684, 9753101.270099999383092 ], [ 241837.653800000436604, 9753091.860300000756979 ], [ 242670.424899999983609, 9753082.450400000438094 ], [ 243169.366499999538064, 9753084.216399999335408 ], [ 243371.458300000056624, 9753096.565199999138713 ], [ 243645.609199999831617, 9753094.349199999123812 ], [ 243696.273299999535084, 9753063.9507 ], [ 245150.333499999716878, 9753058.88429999910295 ], [ 246730.77240000013262, 9753035.401200000196695 ], [ 247808.243999999947846, 9753259.335699999704957 ], [ 249050.298899999819696, 9753534.122899999842048 ], [ 249401.052799999713898, 9753631.388900000602007 ], [ 249512.513899999670684, 9753651.654500000178814 ], [ 249917.826799999922514, 9753763.115599999204278 ], [ 250920.976300000213087, 9754381.217800000682473 ], [ 251680.938099999912083, 9754857.4605 ], [ 252810.747899999842048, 9755541.426000000908971 ], [ 253418.717299999669194, 9755916.340500000864267 ], [ 254008.361700000241399, 9756238.667700000107288 ], [ 254837.312599999830127, 9756777.6305 ], [ 255663.137699999846518, 9757309.603700000792742 ], [ 256392.700899999588728, 9757765.580800000578165 ], [ 256980.404699999839067, 9758576.206599999219179 ], [ 258166.391200000420213, 9760240.17259999923408 ] ] ] ] } }
]
}
